id,name,address,address_lat,address_lng,contact_name,contact_email,url
8582,Леруа Мерлен,,,,,,https://api.hh.ru/employers/8582
18239,SUNLIGHT,,,,,,https://api.hh.ru/employers/18239
55440,Мэлон Фэшн Груп,"Новосибирск, Красный проспект, 101",55.055733,82.911905,Рунихина Надежда Олеговна,runikhinano@melonfashion.com,https://api.hh.ru/employers/55440
986096,ШашлыкоFF,"Новосибирск, Красный проспект, 200",55.063385,82.912515,Алексей,kpkalina@srpgroup.ru,https://api.hh.ru/employers/986096
31050,"РИВ ГОШ, Сеть магазинов","Новосибирск, улица Гоголя, 13",55.043721,82.922334,,,https://api.hh.ru/employers/31050
1090122,Гармония Здоровья,"Новосибирск, Ядринцевская улица, 72",55.033888,82.934991,Перевышина Ольга Петровна,perevyshina.op@garzdrav.ru,https://api.hh.ru/employers/1090122
543968,Азовская кондитерская фабрика,,,,,,https://api.hh.ru/employers/543968
990297,"Армада, группа компаний","Новосибирск, Станционная 30 А -702",,,Мышляева Елена,e.mishlyaeva@gkarmada.ru,https://api.hh.ru/employers/990297
64174,2ГИС,"Новосибирск, площадь Карла Маркса, 7",54.980394,82.897882,Елизавета,e.marushina@nsk.2gis.ru,https://api.hh.ru/employers/64174
2700694,Светодиоды России,"Новосибирск, улица Королёва, 40к21",55.05844,82.964438,,,https://api.hh.ru/employers/2700694
58055,Бизнес и Технологии,,,, Юлия  Сергеевна ,bitpersonal@bitpersonal.ru,https://api.hh.ru/employers/58055
4154423,Субмаринер,,,,,,https://api.hh.ru/employers/4154423
80,Альфа-Банк,,,,,,https://api.hh.ru/employers/80
563290,ОФИС ПРЕМЬЕР,,,,,,https://api.hh.ru/employers/563290
13789,Abbott Laboratories,,,,,,https://api.hh.ru/employers/13789
30637,Л'Этуаль,,,,менеджер по подбору персонала,hrm3-ovb-sb@letuin.ru,https://api.hh.ru/employers/30637
89,БАНК УРАЛСИБ,,,,,,https://api.hh.ru/employers/89
1049049,ИНЖЕНЕРНЫЕ СЕТИ,,,,Санникова Евгения,pep@ingenerseti.ru,https://api.hh.ru/employers/1049049
1726083,Мобильный город,"Новосибирск, Вокзальная магистраль, 2",55.034471,82.899292,Дарья Валерьевна,rabota.tele2@list.ru,https://api.hh.ru/employers/1726083
3127,МегаФон,"Новосибирск, Планетная улица, 30",55.049488,82.960018,Палушина Наталья ,natalia.palushina@megafon.ru,https://api.hh.ru/employers/3127
4568816,Частный рекрутер Петров Никита Алексеевич,,,,,,https://api.hh.ru/employers/4568816
32501,"Монетка, Торговая сеть",,,,Емельянова Виктория,vemelyanova@monetka.ru,https://api.hh.ru/employers/32501
247761,Волгоградский керамический завод,,,,,,https://api.hh.ru/employers/247761
67307,Металлинвест,,,,Колобова Екатерина Евгеньевна,job@m-invest.ru,https://api.hh.ru/employers/67307
1049556,Почта Банк,,,,,,https://api.hh.ru/employers/1049556
1473571,ПаникАпп,"Новосибирск, Советский район, микрорайон Академгородок, проспект Академика Лаврентьева, 6/1",54.851163,83.100623,Грасмик Олеся Сергеевна,ograsmik@punicapp.com,https://api.hh.ru/employers/1473571
1259738,FUNDAY,"Новосибирск, Советский район, микрорайон Академгородок, улица Кутателадзе, 4/4",54.8602966307,83.1050722798,Анжелика,director6389@fundayshop.com,https://api.hh.ru/employers/1259738
3047650,Врачебная практика,"Новосибирск, улица Покрышкина, 1",54.979697,82.8941,Мария Андреевна,callcentervp@ya.ru,https://api.hh.ru/employers/3047650
1003178,Своя компания,,,,Павелина Виктория,v.pavelina@sclife.ru,https://api.hh.ru/employers/1003178
42841,RosExpert RPO Services,,,,,,https://api.hh.ru/employers/42841
669940,DeLight Group,"Новосибирск, Северо-Чемской жилмассив, Оловозаводская улица, 25к15",54.957045,82.949562,,,https://api.hh.ru/employers/669940
4321776,ПЭЛК-Экспорт,"Новосибирск, Фабричная улица, 4",55.016466,82.921148,Беленко Александр,belenko@pelk.ru,https://api.hh.ru/employers/4321776
4473,ZOLLA,,,,ТЦ Голден Парк,job@zolla.ru,https://api.hh.ru/employers/4473
72977,БАРС Груп,,,,,,https://api.hh.ru/employers/72977
914596,"Новосибирский государственный университет экономики и управления, ГОУ","Новосибирск, Каменская, 56",55.036927,82.929269,Надежда Николаевна,n.n.pecherkina@nsuem.ru,https://api.hh.ru/employers/914596
245641,Леви Штраусс Москва,"Новосибирск, улица Гоголя, 13",55.043721,82.922334,,,https://api.hh.ru/employers/245641
3255778,Медицинский центр «АВИЦЕННА»,"Новосибирск, проспект Димитрова, 7",55.034771,82.91168,,,https://api.hh.ru/employers/3255778
50233,Холдинг Российские мясопродукты,"Новосибирск, улица Дуси Ковальчук, 1",55.047373,82.881092,Гукун Ольга,gukun.olya@rmpr.ru,https://api.hh.ru/employers/50233
50771,"People group, центр подбора и развития персонала",,,,Дизендорф Татьяна,peoplegroup604@mail.ru,https://api.hh.ru/employers/50771
3276723,Плотникофф,"Новосибирск, Советская улица, 23",55.026293,82.916953,Бессонов Владимир,hr@gkmtk.pro,https://api.hh.ru/employers/3276723
209271,БЕЛЛА Сибирь,"Новосибирск, Северный проезд, 2/3",,,Оксана,oksana.gordienko@tzmo-global.com,https://api.hh.ru/employers/209271
4606,Familia,"Новосибирск, Военная улица, 5",55.028718,82.936653,Ксения Николаевна (Управляющий директор),,https://api.hh.ru/employers/4606
1280918,ПродТранс,,,,Отдел кадров,ok@prodtrans.ru,https://api.hh.ru/employers/1280918
3309073,Транслак,,,,Смирнова Ольга,hr@translack.ru,https://api.hh.ru/employers/3309073
735972,НИТЭК,,,,Чеботарева Оксана Игоревна,o.chebotareva@nitek-nn.ru,https://api.hh.ru/employers/735972
4513518,КУБ,,,, Александр Александрович,kariertehnika@mail.ru,https://api.hh.ru/employers/4513518
157215,Федеральная сеть книжных магазинов «Читай-город»,,,,Отдел персонала,bolotina.e@bookcentre.ru,https://api.hh.ru/employers/157215
4195607,"Мелехов и Филюрин, РГ","Новосибирск, Октябрьская улица, 7/1",55.024554,82.912515,,,https://api.hh.ru/employers/4195607
216221,ПЕРВОЕ РЕШЕНИЕ,,,,,,https://api.hh.ru/employers/216221
720860,i20,"Новосибирск, улица Щетинкина, 49",55.028914,82.927841,,,https://api.hh.ru/employers/720860
1274960,"Сибирский деловой союз, Холдинговая компания (АО ХК СДС)",,,,Бессонова Любовь Сергеевна,l.bessonova@hcsds.ru,https://api.hh.ru/employers/1274960
2523,М.Видео-Эльдорадо,,,,,,https://api.hh.ru/employers/2523
4555327,Азбука Суши,"Новосибирск, Красный проспект, 17",55.026592,82.920744,Егорова Анастасия,anasgorovo@yandex.ru,https://api.hh.ru/employers/4555327
1127911,ТаймЛизинг,"Новосибирск, улица Кирова, 48",55.01771,82.940237,Зубова Виктория,hr@timeleasing.ru,https://api.hh.ru/employers/1127911
599,"РОСБАНК, Societe Generale Group (Russia)",,,,,,https://api.hh.ru/employers/599
96379,ИРВИН 2,,,,Живова Полина Валентиновна,,https://api.hh.ru/employers/96379
3789996,Нова-Дом,,,,Щеголева Ирина Александровна,zhivi.otlichno@gmail.com,https://api.hh.ru/employers/3789996
1942330,Пятерочка,"г Новосибирск, ул Лазурная, 24",55.0335051,83.0185946,Центр подбора персонала ТС,rpo.cv@x5.ru,https://api.hh.ru/employers/1942330
147024,Управдом,,,,,,https://api.hh.ru/employers/147024
4493728,TalkChinese,,,,Чжао Нина,nina@talkchinese.ru,https://api.hh.ru/employers/4493728
5599,Лаборатория Гемотест,,,,Давыдова Ольга Александровна,olga.davydova@gemotest.ru,https://api.hh.ru/employers/5599
1157883,Рич Фэмили,,,,Менеджер по персоналу,personal@rf-54.ru,https://api.hh.ru/employers/1157883
704368,ПНК Групп,,,,,,https://api.hh.ru/employers/704368
1864790,Хлебница,,,,,,https://api.hh.ru/employers/1864790
12010,NUTRICIA,,,,,,https://api.hh.ru/employers/12010
4793,Pfizer,"Москва, Пресненская набережная, 10блокС",55.747074,37.536589,,,https://api.hh.ru/employers/4793
4219935,Хьюнет,,,,,,https://api.hh.ru/employers/4219935
2735486,ANCOR Industry,,,,,,https://api.hh.ru/employers/2735486
1947314,ANCOR Consumer Goods,,,,,,https://api.hh.ru/employers/1947314
4508212,Бушинская Виктория Сергеевна,,,,Носкова Ольга,o.noskova59@mail.ru,https://api.hh.ru/employers/4508212
2537115,Розничная сеть МТС,,,,Специалист группы подбора персонала,aogajnts@mtsretail.ru,https://api.hh.ru/employers/2537115
4181,Банк ВТБ (ПАО),,,,,,https://api.hh.ru/employers/4181
49357,"МАГНИТ, Розничная сеть",,,,Иванова Елена Анатольевна,ivanova_ea4@magnit.ru,https://api.hh.ru/employers/49357
1025275,Сеть магазинов цифровой и бытовой техники DNS,,,,Екатерина,hr_nsk@dns-shop.ru,https://api.hh.ru/employers/1025275
2341293,РСТ-Энерго,,,,,,https://api.hh.ru/employers/2341293
1692942,ПБР,,,,,,https://api.hh.ru/employers/1692942
4288582,"АН-Секьюрити, г Новосибирск","Новосибирск, Депутатская улица, 2",55.026773,82.906084,,,https://api.hh.ru/employers/4288582
2913520,Артекс,,,,,,https://api.hh.ru/employers/2913520
4537051,Онлайн Маркет,,,,Олеся Валерьевна,tv-media07@list.ru,https://api.hh.ru/employers/4537051
7172,"Лента, федеральная розничная сеть",,,,Единый центр НСК,jobsib@lenta.com,https://api.hh.ru/employers/7172
4166432,Орлов Андрей Викторович,,,,,,https://api.hh.ru/employers/4166432
876195,Сибирская генерирующая Компания,,,,Елисеева Елена,eliseevaee@sibgenco.ru,https://api.hh.ru/employers/876195
3881744,Газстройпром,,,,Шакирова Алина Сергеевна,shakirovaas@gsprom.ru,https://api.hh.ru/employers/3881744
2206330,Некста Груп,"Новосибирск, улица Фрунзе, 86",55.037381,82.933509,Тарасова Наталья,n.tarasova@nextta.ru,https://api.hh.ru/employers/2206330
4037422,Айсберг,"Новосибирск, Серебренниковская улица, 37",55.02879,82.923978,Евгений Владимирович,khodunova.ea@tkorus.ru,https://api.hh.ru/employers/4037422
2171474,ГБУ НСО Центр Информационных Технологий Новосибирской Области,"Новосибирск, Красный проспект, 18",55.021818,82.923466,,,https://api.hh.ru/employers/2171474
1908843,ОсОО Кондитерский дом Куликовский,,,,,,https://api.hh.ru/employers/1908843
6591,Промсвязьбанк,,,,,,https://api.hh.ru/employers/6591
733955,ХК ПАО НЭВЗ-Союз,"Новосибирск, Красный проспект, 220к10",55.06851,82.913342,"Елена, менеджер по персоналу",oknevz2019@gmail.com,https://api.hh.ru/employers/733955
2468171,WazzApps (ИП Лабецкий Б.С.),"Новосибирск, улица Добролюбова, 2А",55.002738,82.942115,Селивёрстова Вероника,veronika@wazzapps.org,https://api.hh.ru/employers/2468171
1087689,Государственная Новосибирская областная клиническая больница,,,,,,https://api.hh.ru/employers/1087689
2816987,ТРИММ Сибирь,"Новосибирск, улица Семьи Шамшиных, 22/1",55.029657,82.934776, Ольга,aov-nsk@mail.ru,https://api.hh.ru/employers/2816987
85615,O'STIN,"Новосибирск, Военная улица, 5",55.028574,82.936429,Протопопова Дарья,dprotopopova@o-stin.ru,https://api.hh.ru/employers/85615
2613029,АЛЛО МАМА,,,,,,https://api.hh.ru/employers/2613029
1594756,ЭКСПЕРТ НСК,"Новосибирск, Большевистская улица, 276/1",54.982977,83.000829,Юлия Алексеевна,y.avetisyan@nissan-nsk.com,https://api.hh.ru/employers/1594756
3440458,Эйфель,,,,Шаповалова Ксения Алексеевна,hr@eflnsk.ru,https://api.hh.ru/employers/3440458
36346,"МастерТЕКС, Холдинг",,,,,,https://api.hh.ru/employers/36346
670739,Первый строительный фонд,,,,Костина Татьяна Александровна,kostina.ta@psfond.ru,https://api.hh.ru/employers/670739
1130122,НПП Тепловодохран,"Новосибирск, Трикотажная улица, 51/2",55.061771,82.973538,Полетайкина Юлия Николаевна,poletaikina@pulsarm.ru,https://api.hh.ru/employers/1130122
4387374,Наставник,,,,Шилкина Виктория,nastavnik.nsk@mail.ru,https://api.hh.ru/employers/4387374
69797,Электронный город (ООО Новотелеком),"Новосибирск, Коммунистическая улица, 40",55.023124,82.920636,Мирошниченко Лидия ,l.yu.miroshnichenko@novotelecom.ru,https://api.hh.ru/employers/69797
2769132,СпецТех-ДВ,,,,Игорь Валерьевич,ooo.atl28@mail.ru,https://api.hh.ru/employers/2769132
2579503,Новосибирский инструментальный завод,"Новосибирск, Большевистская улица, 177",54.993644,82.976565,Батраева Наталья Николаевна,batraeva@niz.ru,https://api.hh.ru/employers/2579503
3782,РОСГОССТРАХ Банк,,,,,,https://api.hh.ru/employers/3782
581458,PepsiCo,,,,Специалист по подбору персонала,rabota@pepsico.com,https://api.hh.ru/employers/581458
48735,Сибирские Сети,"Новосибирск, проспект Дзержинского, 1/2",55.04791,82.95797,Зимина Анастасия,a.zimina@sibset-team.ru,https://api.hh.ru/employers/48735
3782259,Ростелеком - Розничные Системы,,,,Сергеева Алёна Сергеевна,alena.sergeeva@rt.ru,https://api.hh.ru/employers/3782259
4551599,ЧОО Гард-Н,,,,,,https://api.hh.ru/employers/4551599
3104820,Адель,,,,Телегина Татьяна,cdgroup2016@mail.ru,https://api.hh.ru/employers/3104820
1901822,«СТИМУЛ»,,,,,,https://api.hh.ru/employers/1901822
1066663,Торговый квартал - Новосибирск,"Новосибирск, улица Фрунзе, 238",55.03897,82.960728,,,https://api.hh.ru/employers/1066663
1317294,Мелодия здоровья,,,,Анна,chegoshevaan@melzdrav.ru,https://api.hh.ru/employers/1317294
960,ОМС,,,,Михаил,petrova_n@omc.ru,https://api.hh.ru/employers/960
7449,Calzedonia Group,,,,Никитина Валерия,valeria.nikitina@calzedonia.ru,https://api.hh.ru/employers/7449
235196,"ЛЕВОБЕРЕЖНЫЙ, Новосибирский социальный коммерческий банк",,,,Иванова Марина Николаевна,imn@nskbl.ru,https://api.hh.ru/employers/235196
404,"ЗЕНИТ, банк",,,,,,https://api.hh.ru/employers/404
16962,Сатурн,"Новосибирск, улица Петухова, 35к6",54.94717,82.857098,Лукьянова Ольга Геннадиевна,lukyanova@nsk.saturn.net,https://api.hh.ru/employers/16962
2940651,РА Кефир,,,,,,https://api.hh.ru/employers/2940651
776314,Парфюмерный супермаркет Золотое Яблоко,"Новосибирск, Красный проспект, 98",55.054501,82.91486,,,https://api.hh.ru/employers/776314
21822,Торрент Фармасьютикалс,"Москва, Новочеремушкинская улица, 61",55.668752,37.565937,,,https://api.hh.ru/employers/21822
901253,Рersonaldelo,,,,менеджер Марина ,spb.personal@personaldelo.ru,https://api.hh.ru/employers/901253
955,СОГАЗ,,,,Музалевская Анастасия Алексеевна,muzalevskaya.a@sogaz.ru,https://api.hh.ru/employers/955
3858851,Вертикаль,,,,Аксенов Александр,aks-aleks@mail.ru,https://api.hh.ru/employers/3858851
142739,"Perfekt, Группа компаний",,,,,,https://api.hh.ru/employers/142739
2583009,ГК Точка,"Новосибирск, проспект Димитрова, 4/1",55.02957,82.908365,Осока Елена Олеговна,osoka@tochka54.ru,https://api.hh.ru/employers/2583009
824443,Маркетика,"Новосибирск, улица Кирова, 113/2",55.0137401334,82.9539355066,Макаревич Светлана,welcome@marketica.pro,https://api.hh.ru/employers/824443
4567684,ААА,"Новосибирск, Коммунистическая улица, 45",55.023888,82.923879,Ирхина Ирина,irinairh@gmail.com,https://api.hh.ru/employers/4567684
21032,ГЕДЕОН РИХТЕР ФАРМА,,,,,,https://api.hh.ru/employers/21032
3400932,Новосибирский мелькомбинат № 1,"Новосибирск, Большевистская улица, 135",54.998101,82.963666,Юлия Владимировна,ooonmk1@gmail.com,https://api.hh.ru/employers/3400932
20496,КАРО Фильм Менеджмент,,,,Менеджер кинотеатра,hr@karofilm.ru,https://api.hh.ru/employers/20496
826427,ОПТИК ЦЕНТР,,,,,,https://api.hh.ru/employers/826427
22911,ITC-Electronics,"Новосибирск, Зыряновская улица, 53",55.011469,82.937093,Третьяк Ксения Васильевна,kv.tretyak@itc-electronics.com,https://api.hh.ru/employers/22911
1145080,Digital-агентство «Всё отлично!»,"Новосибирск, улица Фрунзе, 124/8",55.037784,82.938845,Алексей,personal@vogood.ru,https://api.hh.ru/employers/1145080
828199,«Предприятие «ЭЛТЕКС»,"город Новосибирск, Окружная улица, 29в",55.083601,82.938396,Рассказова Виктория ,viktoriya.rasskazova@eltex-co.ru,https://api.hh.ru/employers/828199
2818486,Дом солнца,"Новосибирск, улица Красный Факел, 25",54.975982,83.091819,Лариса,home.sun@yandex.ru,https://api.hh.ru/employers/2818486
1935959,Новосибирский приборостроительный завод («НПЗ»),"Новосибирск, улица Дуси Ковальчук, 179/2",55.060431,82.913342,,,https://api.hh.ru/employers/1935959
608405,MPH Vostok,,,,,,https://api.hh.ru/employers/608405
66212,Торговый дом Лазурит,,,,Лазурит,roznica-lazurit@mail.ru,https://api.hh.ru/employers/66212
1710189,Оператор недвижимости ПЕРСПЕКТИВА 24,"Новосибирск, Зыряновская улица, 61",55.009977,82.941235,Анна,,https://api.hh.ru/employers/1710189
96803,Кондитерский город,"Новосибирск, улица Фрунзе, 232",55.039342,82.955473,Антипова  Евгения,of@kfsibir.ru,https://api.hh.ru/employers/96803
893093,АСКА недвижимость,,,,Пастущак Софья Александровна,s.past@aska-realty.ru,https://api.hh.ru/employers/893093
1532685,Элитный Сочи,,,,Пономарёва Кристина,ponomareva@elitesochi.com,https://api.hh.ru/employers/1532685
2127513,Мегаполис,,,,Менеджер,1003@ra99.ru,https://api.hh.ru/employers/2127513
3172338,Сеть гипермаркетов Hello!,"Новосибирск, улица Николая Островского, 111к11",55.05201,82.93624,Куликова Ольга,hr@hello54.ru,https://api.hh.ru/employers/3172338
4120288,"ЮТА-транс, г Новосибирск","Новосибирск, проспект Димитрова, 7",55.034771,82.91168,Анна Владимировна,zaharova@uta-trans.ru,https://api.hh.ru/employers/4120288
2957338,Пластика Окон,"Новосибирск, улица Фрунзе, 88",55.0375,82.934668,Анжелика,po-nsk@mail.ru,https://api.hh.ru/employers/2957338
4286305,АгроБийскПереработка,,,,Анна,evmenova.aa@agro-company.com,https://api.hh.ru/employers/4286305
3009677,БАУ-групп,"Новосибирск, Советская улица, 4А",55.021457,82.919235,,,https://api.hh.ru/employers/3009677
3019368,БСМ-МЕТАЛЛ,"Новосибирск, проспект Дзержинского, 1/3",55.04742,82.957252,Максим Олегович,100@bcm-m.ru,https://api.hh.ru/employers/3019368
4620,ГЛОРИЯ ДЖИНС,,,,Ермишина Ульяна,ermishina@gloria-jeans.ru,https://api.hh.ru/employers/4620
3657285,ТранСтрой,,,,Андреева Наталья,n.andreeva@transtroy64.com,https://api.hh.ru/employers/3657285
130150,Моё дело,,,,,,https://api.hh.ru/employers/130150
72995,АДАМАС,"Новосибирск, улица Ватутина, 107",54.964463,82.93703,Безушко Юлия,yu.bezushko@adamas.ru,https://api.hh.ru/employers/72995
51137,"Сибирский Гурман, КП",,,,Киреева Алена,a.kireeva@sib-gurman.ru,https://api.hh.ru/employers/51137
234152,TetChair,,,,,,https://api.hh.ru/employers/234152
1228187,SOLOPHARM,,,,Боковенко Анна Сергеевна,anna.bokovenko@grotexmed.com,https://api.hh.ru/employers/1228187
669587,"Этажи, федеральная компания",,,,Никульникова Виктория Алексеевна,v.a.nikulnikova@tmn1.etagi.com,https://api.hh.ru/employers/669587
3288538,Прайм Брокеридж,"Новосибирск, улица Дуси Ковальчук, 250",55.055764,82.904242,Кужелев Евгений,prime_brokerage@mail.ru,https://api.hh.ru/employers/3288538
188712,Ситимобил,,,,Черныш Анастасия Алексеевна,,https://api.hh.ru/employers/188712
2633,ТРАНСКАПИТАЛБАНК,"Новосибирск, Коммунистическая улица, 35",55.023449,82.92016,Белоброва Юлия,belobrova_ys@tkbbank.ru,https://api.hh.ru/employers/2633
3411,Русфинанс Банк (Societe Generale Group),,,,Приказчикова Екатерина,prikazchikovaev@rusfinance.ru,https://api.hh.ru/employers/3411
3337,Schneider Electric,,,,,,https://api.hh.ru/employers/3337
1597535,Premier Basic Professional,,,,,,https://api.hh.ru/employers/1597535
3395922,Матяшенко Максим Владимирович,,,,Алькова Любовь,iv.lyuba@list.ru,https://api.hh.ru/employers/3395922
2185891,Содействие Финанс Групп,"Новосибирск, Каменская улица, 51",55.045264,82.923816,,,https://api.hh.ru/employers/2185891
73886,LPP,,,,,,https://api.hh.ru/employers/73886
3533476,Гален,,,,Ли Феликс,lee_felix@inbox.ru,https://api.hh.ru/employers/3533476
2358981,Бар Хамовники,"Новосибирск, Красный проспект, 77/1",55.049498,82.914375,Поминова Наталья,n.pominova@dnkfood.ru,https://api.hh.ru/employers/2358981
3776,МТС,,,,,,https://api.hh.ru/employers/3776
78638,Тинькофф,,,,Отдел подбора персонала,,https://api.hh.ru/employers/78638
133593,ТОТАЛ ВОСТОК,,,,,,https://api.hh.ru/employers/133593
569,"АВТОМИР, ГК","Новосибирск, пр. Энергетиков, 4а",55.002759,82.869522,Джалилходжиева Рената Алимовна,personal.nsa@avtomir.ru,https://api.hh.ru/employers/569
787157,Много Мебели,,,,Белова Елена,e.belova@groupx.ru,https://api.hh.ru/employers/787157
3711068,Ритон-н,,,,Павин Михаил Николаевич,riton-n@mail.ru,https://api.hh.ru/employers/3711068
4133775,МеталлАгроСнаб,,,,Гробок Леонид,grobokl@mail.ru,https://api.hh.ru/employers/4133775
3148,СИТИЛИНК,"Новосибирск, улица Гоголя, 15",55.043309,82.924059,Трифоненко Мария ,trifonenko.m@citilink.ru,https://api.hh.ru/employers/3148
2621177,Базис Генотех,"Новосибирск, Ядринцевская улица, 23",55.033223,82.921355,Маренич Любовь,l.marenich@basisgenotech.ru,https://api.hh.ru/employers/2621177
2308037,Студия Ремонтов,"Новосибирск, Комсомольский проспект, 24",55.032119,82.907197,Бурдинская Виктория,ns.studia.remontov.hr@gmail.com,https://api.hh.ru/employers/2308037
838025,KONTUR - digital-агентство,"Новосибирск, Депутатская улица, 46",55.028888,82.926484,,,https://api.hh.ru/employers/838025
1432137,РосДеньги,,,,,,https://api.hh.ru/employers/1432137
4609,TEVA,,,,,,https://api.hh.ru/employers/4609
715183,ССК ГАЗРЕГИОН,,,,,,https://api.hh.ru/employers/715183
2630243,Ресурс Групп,,,,Семенова Татьяна Васильевна,89003308168@mail.ru,https://api.hh.ru/employers/2630243
611332,Центральное агентство недвижимости,"Новосибирск, Красный проспект, 81",55.051066,82.913971,Татьяна,arsyutinata@centralnoe.ru,https://api.hh.ru/employers/611332
636640,"Астра-Мед,ООО","Новосибирск, улица Кирова, 46",55.017932,82.939636,,,https://api.hh.ru/employers/636640
590,L’Oréal,,,,,,https://api.hh.ru/employers/590
10042,Sumitec International,,,,Быстрова Анастасия Алексеевна,anastasia.bystrova@sumitec.ru,https://api.hh.ru/employers/10042
4549503,Oh my french,,,, Алиса Олеговна,oh.my.french@mail.ru,https://api.hh.ru/employers/4549503
235830,"Труд, девелоперская компания","Новосибирск, Красный проспект, 79/1",55.049895,82.912569,Богданова Светлана,personal-trud@mail.ru,https://api.hh.ru/employers/235830
1217313,МегаФон Ритейл,"Новосибирск, пр. Дзержинского, 61",55.05693,82.976754,Служба персонала,hr.sibir@megafon-retail.ru,https://api.hh.ru/employers/1217313
76377,Васильевский рудник,,,,Крупченко Ирина Александровна,krupchenko@vrgm.net,https://api.hh.ru/employers/76377
1268335,Агентство инвестиционного развития Новосибирской области,"Новосибирск, Советская улица, 5",55.021411,82.917321,Майя Маренникова ,mmk@air-nso.ru,https://api.hh.ru/employers/1268335
4511144,Финансовые Решения Юг,,,,,,https://api.hh.ru/employers/4511144
2807265,MODI,"Новосибирск, площадь Карла Маркса, 7",54.980394,82.897882,Сидоренко Елизавета,e.sidorenko@modi.ru,https://api.hh.ru/employers/2807265
3991,FINN FLARE,"Новосибирск, улица Гоголя, 13",55.043721,82.922334,Отдел персонала,,https://api.hh.ru/employers/3991
67611,Тензор,,,,,,https://api.hh.ru/employers/67611
144975,РДМ-Импорт,"Новосибирск, улица Фрунзе, 61/2",55.040606,82.952419,Елена Облецова,e.oblecova@rdm-import.ru,https://api.hh.ru/employers/144975
1812195,Альфа - продукт,"Новосибирск, Фабричная улица, 17к2",55.015981,82.918876,Чесалин Федор,hr@mypaleta.ru,https://api.hh.ru/employers/1812195
2765,ManpowerGroup,,,,Нестерюк Анастасия ,anastasia.nesteruk@ru.manpowergroup.com,https://api.hh.ru/employers/2765
1162058,"АС Менеджмент Групп, Кадровое Агентство ключевых специалистов","Новосибирск, проспект Карла Маркса, 30/1",54.991372,82.912506,,,https://api.hh.ru/employers/1162058
1088656,Новосибирский областной кардиологический диспансер,"Новосибирск, улица Залесского, 6к8",55.072798,82.934803,Соболева Юлия,kadry-cardio-nso@mail.ru,https://api.hh.ru/employers/1088656
1452235,ДИАЛ,,,,Кристина,kadrdial@mail.ru,https://api.hh.ru/employers/1452235
3696,Модный Континент,,,,Марина,chebotareva.mm@incity.ru,https://api.hh.ru/employers/3696
2538043,Декорация,,,,Захарова Ирина Николаевна,buh5@oboideco.ru,https://api.hh.ru/employers/2538043
4470759,Galamax - служба доставки,,,,Компания GALAMAX,,https://api.hh.ru/employers/4470759
3268241,Торгсервис 55,,,,Чиж Александр,9131432129@mail.ru,https://api.hh.ru/employers/3268241
4482831,Стоцкий Александр Николаевич,"Новосибирск, Красный проспект, 220к33",55.068484,82.916369,Протасевич Ирина,m2@rpk-koncept.ru,https://api.hh.ru/employers/4482831
1787033,Втормет,,,,,,https://api.hh.ru/employers/1787033
533,Связной,"Новосибирск, Октябрьская магистраль, 4",55.022799,82.92926,,,https://api.hh.ru/employers/533
2008933,Мокрый нос,"Новосибирск, улица Фрунзе, 242",55.039925,82.96248,Хохлова Анастасия,hr@mokryinos.ru,https://api.hh.ru/employers/2008933
34366,Glance,"Новосибирск, Красный проспект, 22",55.022949,82.922891,Овсянникова Юлия Владимировна,ovsyannikova.y@glance.ru,https://api.hh.ru/employers/34366
803966,ГЕНЕРИУМ,,,,,,https://api.hh.ru/employers/803966
2343,Спортмастер,,,,,,https://api.hh.ru/employers/2343
622590,"Милавица-Новосибирск, ТД","Новосибирск, Красный проспект, 220/5",55.067731,82.913396,Шабельникова Мария,personal@milavitsa-sib.ru,https://api.hh.ru/employers/622590
1833,Брокеркредитсервис,"Новосибирск, Советская улица, 37",55.031123,82.915713,,,https://api.hh.ru/employers/1833
2613106,Гарант-Сервис,"Новосибирск, проспект Карла Маркса, 57",54.992399,82.911204,Фролова Ирина,nsk1@kkm54.com,https://api.hh.ru/employers/2613106
1744858,ДескАлертс,"Новосибирск, Коммунистическая улица, 2",55.022438,82.91292,Елена,job@deskalerts.com,https://api.hh.ru/employers/1744858
671304,ALEX fitness,"Новосибирск, улица Гоголя, 15",55.043309,82.924059,Медведева Ольга,fitness-upiter@alexfitness.ru,https://api.hh.ru/employers/671304
1144181,Фэмили,"Новосибирск, проспект Карла Маркса, 37/2",54.989001,82.90514,Васильева Елена,hr4@sibfamily.ru,https://api.hh.ru/employers/1144181
2846280,Компания «ФИНТЕРРА»,,,,Елена Сунугатуловна,e.ibatulina@fterra.ru,https://api.hh.ru/employers/2846280
57770,Мария-Ра,"Новосибирск, улица Селезнева, 46/1",55.045387,82.94578,Самарина Татьяна Анатольевна,p44@maria-ra.ru,https://api.hh.ru/employers/57770
3968117,Mono_nsk,Новосибирск,55.030199,82.92043,,,https://api.hh.ru/employers/3968117
132136,БыстроБанк,,,,,,https://api.hh.ru/employers/132136
4450,"Сотекс, Фармацевтическая Фирма",,,,,,https://api.hh.ru/employers/4450
832954,Тракресурс,"Новосибирск, Сухарная улица, 35",55.046429,82.868255,Бородулин Алексей,bas@tr-lift.ru,https://api.hh.ru/employers/832954
4880,Детский Мир,,,,,,https://api.hh.ru/employers/4880
4802,Мебельная компания «Шатура»,"Новосибирск, площадь Карла Маркса, 6/1",54.980477,82.895151,Сезганова Инга,i.v.sezganova@nto-sale.ru,https://api.hh.ru/employers/4802
856416,Новосибирский завод конденсаторов,"Новосибирск, Часовая улица, 6",54.865845,82.981605,Шафнер Илья Андреевич,personal@po-nzk.ru,https://api.hh.ru/employers/856416
119043,"Логос, ГК","Новосибирск, улица Челюскинцев, 48/1",55.040637,82.910368,Шатько Юлия,personal@logos-group.ru,https://api.hh.ru/employers/119043
1020075,"Гроспирон, ГК","Новосибирск, проспект Карла Маркса, 30/1",54.991372,82.912506,,,https://api.hh.ru/employers/1020075
2245,Росгосстрах,,,,Яковлева Ольга Константиновна,olga_yakovleva@nsk.rgs.ru,https://api.hh.ru/employers/2245
78961,Банк Восточный,,,,,,https://api.hh.ru/employers/78961
4559145,Буровые Технические Системы,,,,Кулагин Георгий,g.g.kulagin@hotmail.com,https://api.hh.ru/employers/4559145
32619,"БЕЛУПО, лекарства и косметика д.д.",,,,,,https://api.hh.ru/employers/32619
3736024,НОВО-НСК,"Новосибирск, Ядринцевская улица, 68/1",55.03345,82.932934,Литвинова Алла,allitalitvinova@gmail.com,https://api.hh.ru/employers/3736024
1245085,Appsgeyser.com,"Новосибирск, Коммунистическая улица, 2",55.022438,82.91292,Светкин Илья,appsgeyserheadhunter@gmail.com,https://api.hh.ru/employers/1245085
4364245,КА Пойдем!,"Новосибирск, улица Дуси Ковальчук, 276к13",55.061988,82.924733,Глухих Светлана Алексеевна,sglukhikh@legalcollector.ru,https://api.hh.ru/employers/4364245
2146335,Франчайзи сеть 2ГИС «Восток-Запад»,,,,,,https://api.hh.ru/employers/2146335
4233,X5 RETAIL GROUP,,,,,,https://api.hh.ru/employers/4233
6093,ИНВИТРО,"Новосибирск, проспект Димитрова, 3/1",55.032119,82.908042,Амурханова Юлия,yamurkhanova@invitro.ru,https://api.hh.ru/employers/6093
1477834,ЭНЕРГИЯ,"Новосибирск, Серебренниковская улица, 4/1",55.017756,82.93006,Скрипникова Екатерина ,personal@nrg-tk.ru,https://api.hh.ru/employers/1477834
4361625,Додо Пицца (ООО Риверс Групп),"Новосибирск, Красный проспект, 17",55.026592,82.920744,Екатерина,e.stekolnikova@dodonsk.ru,https://api.hh.ru/employers/4361625
852318,СМЦ Стиллайн,"Новосибирск, улица Сибиряков-Гвардейцев, 50",54.963067,82.901161,Ощепкова Наталья,job@smc-steelline.ru,https://api.hh.ru/employers/852318
746556,Екатеринбургская энергостроительная компания,,,,,,https://api.hh.ru/employers/746556
1556419,"ПГС-К (GARDIS, SOLOS)",,,,Манькова Евгения Николаевна,personal@solos.ru,https://api.hh.ru/employers/1556419
1848992,Золотопроект,"Новосибирск, улица Королёва, 40к54/36",55.056254,82.961815,Оксана Юрьевна,89138956013@mail.ru,https://api.hh.ru/employers/1848992
4934,Билайн,"Новосибирск, Октябрьская улица, 34",55.023986,82.915893,Головин Александр Анатольевич,alegolovin@nsk.beeline.ru,https://api.hh.ru/employers/4934
641527,Гипермаркет Самбери,,,,,,https://api.hh.ru/employers/641527
2751273,ГК ГЕОГРАД,"Новосибирск, проспект Карла Маркса, 24А",54.989254,82.908213,Кобылкина Алеся,press-info@geogradsib.ru,https://api.hh.ru/employers/2751273
1913144,Серверные Технологии,,,,,,https://api.hh.ru/employers/1913144
3036416,ЦентрПроф,,,,Кузнецов Антон,cpp.spb.23@gmail.com,https://api.hh.ru/employers/3036416
3882733,Финтех Айкью,"Новосибирск, улица Державина, 28",55.03897,82.927742,,,https://api.hh.ru/employers/3882733
25022,ProfiStaff,,,,,,https://api.hh.ru/employers/25022
900540,Сладомир Логистик Групп,"Новосибирск, ул.Большевистская, 131а",,,Морозова Евгения Александровна,morozova_ea@sladomir.com,https://api.hh.ru/employers/900540
81778,Ринет,"Новосибирск, улица Якушева, 37",55.011195,82.941262,,,https://api.hh.ru/employers/81778
4469149,RESPUBLICA,,,,Екатерина Вадимовна,hrrespub@gmail.com,https://api.hh.ru/employers/4469149
3549219,ФКУ Центр по обеспечению деятельности Казначейства России,,,,,,https://api.hh.ru/employers/3549219
4522415,Сириус,,,,Илья,biosezon@gmail.com,https://api.hh.ru/employers/4522415
4279078,Сибирский рыбный дом,,,,Стрижова Надежда,neftemag_bux@mail.ru,https://api.hh.ru/employers/4279078
4559146,Каримова,,,,,,https://api.hh.ru/employers/4559146
976,ZENDEN,"Новосибирск, улица Ватутина, 107",54.964463,82.93703,Блохина Кристина,blokhina.k@zenden.ru,https://api.hh.ru/employers/976
4561105,Анна Рогачёва,,,,,,https://api.hh.ru/employers/4561105
3145984,Хуалянь Машинери,,,,Казарина Мария,kazarina@hualian.ru,https://api.hh.ru/employers/3145984
45428,СТРОЙСИСТЕМА,,,,Смирнова Виктория,v.smirnova@stroyst.ru,https://api.hh.ru/employers/45428
3878152,Сибирькит,"Новосибирск, Танковая улица, 72",55.064535,82.935656,,,https://api.hh.ru/employers/3878152
954932,Эдутех,"Новосибирск, улица Кирова, 44/1",55.017452,82.9373,Щапова Екатерина,cat.shapova@yandex.ru,https://api.hh.ru/employers/954932
2109,Группа компаний «Славянка»,,,,,,https://api.hh.ru/employers/2109
4551218,Ахланов,,,,,,https://api.hh.ru/employers/4551218
10295,Фитнес-клубы X-FIT,"Новосибирск, площадь Карла Маркса, 7",54.980394,82.897882,Покидова Екатерина,nsb-rop@xfit.ru,https://api.hh.ru/employers/10295
29706,"Монро, Группа компаний",,,, Марина Владимировна,marina@monro.biz,https://api.hh.ru/employers/29706
2409,Дымов,,,,,,https://api.hh.ru/employers/2409
25688,Сервис-Интегратор,,,,Андрианова Алена,andrianova.a@s-int.ru,https://api.hh.ru/employers/25688
54307,СУПЕРКАДРЫ - Социоаналитический Центр,,,,,,https://api.hh.ru/employers/54307
896650,Подразделение Д,,,,Ирина Борисовна,,https://api.hh.ru/employers/896650
124,Coleman Services,"Новосибирск, Красный проспект, 55",55.039254,82.917259,Храмова Елена,e.khramova@coleman.ru,https://api.hh.ru/employers/124
2606987,Торговый Дом Крюгер,,,,Юрий,sotnikovyv@kruger.su,https://api.hh.ru/employers/2606987
2750581,АгроМашины,,,,Лысых Анатолий Витальевич,3111031@agromashiny.ru,https://api.hh.ru/employers/2750581
798343,ФГБУ НМИЦ им. ак. Е.Н. Мешалкина Минздрава России,"Новосибирск, Речкуновская, 15",54.867736,83.073332,,,https://api.hh.ru/employers/798343
97954,Федеральная сеть шинных центров 5Колесо,,,,Лукоянова Олеся,olesja5koleso@mail.ru,https://api.hh.ru/employers/97954
1141611,Альфа-Кс,,,,Ольга,,https://api.hh.ru/employers/1141611
49629,Реклама Онлайн Группа компаний,,,,Пермякова Полина,pr@reklama-online.ru,https://api.hh.ru/employers/49629
370,АльфаСтрахование,"Новосибирск, улица Орджоникидзе, 38",55.032139,82.935881,Шатова Людмила Николаевна,personalnsk@alfastrah.ru,https://api.hh.ru/employers/370
7944,Совкомбанк,,,,Горбунова Анастасия,gorbunovaag@sovcombank.ru,https://api.hh.ru/employers/7944
6566,Леди и Джентльмен,"Новосибирск, Военная улица, 5",55.028749,82.936698,Плутахина Наталья Леонидовна,natalya.plutakhina@pochtavip.com,https://api.hh.ru/employers/6566
2169763,ВЕК Косметик,"Новосибирск, Ядринцевская улица, 23",55.033223,82.921355,Маренич Любовь,l.marenich@veccosmetic.com,https://api.hh.ru/employers/2169763
1043716,Франчайзинговая розничная сеть Галамарт,,,,,,https://api.hh.ru/employers/1043716
1496,Банк Хоум Кредит,"Новосибирск, улица Добролюбова, 2А",55.002738,82.942115,,,https://api.hh.ru/employers/1496
1140,ЭлектроКомплектСервис,"Новосибирск, проспект Карла Маркса, 57",54.992441,82.911222,Богомолова Елена,beg@elektro.ru,https://api.hh.ru/employers/1140
159456,Linde Material Handling,,,,,,https://api.hh.ru/employers/159456
990136,"КредитКерамика (Новый Формат, ООО)","Новосибирск, улица Максима Горького, 40",55.026587,82.915633,Глазов Игорь Николаевич,glasov@nsk.ceramica.ru,https://api.hh.ru/employers/990136
24946,"Энергомера, Концерн",,,,,,https://api.hh.ru/employers/24946
56551,AZIMUT Hotels,"Новосибирск, улица Ленина, 21",55.029306,82.904898,,,https://api.hh.ru/employers/56551
1492002,Намерение,,,,Бер Ольга,izssm_kadr@mail.ru,https://api.hh.ru/employers/1492002
3541845,Эбис,,,,Вальтер Анастасия,avalter795@gmail.com,https://api.hh.ru/employers/3541845
494,КРКА ФАРМА,,,,,,https://api.hh.ru/employers/494
3321121,Купинское мороженое,,,,,,https://api.hh.ru/employers/3321121
586,Банк Русский Стандарт,,,,,,https://api.hh.ru/employers/586
3646055,Премьер-Консалт,,,,,,https://api.hh.ru/employers/3646055
1478709,"Газпром газораспределение Томск, филиал в Новосибирской области","Новосибирск, улица Фрунзе, 124",55.038073,82.939977,,,https://api.hh.ru/employers/1478709
60377,ИТЕКО,,,,Евгения,evgeniya.fedorova@itecorp.ru,https://api.hh.ru/employers/60377
4546960,ИнвестСити,"Новосибирск, улица Фрунзе, 5",55.036644,82.916684,Ларченко Александр,loakos@yandex.ru,https://api.hh.ru/employers/4546960
1319959,ГБУЗ НСО Городская клиническая больница № 25,"Новосибирск, улица Александра Невского, 1А",55.076721,82.948897,Бычкова Юлия Викторовна,juliafleurette@mail.ru,https://api.hh.ru/employers/1319959
1970770,ГБУЗ НСО Новосибирский областной наркологический диспансер,"Новосибирск, Каинская улица, 21А",55.019527,82.928434,Маргулис Софья Львовна ,kadry.narcologia@mail.ru,https://api.hh.ru/employers/1970770
3398823,УК Группа Мета,,,,Яна,ya.nechunaeva@groupmeta.ru,https://api.hh.ru/employers/3398823
122875,"Фармацевтическая Компания, Группа компаний",,,,Горюк Роман Иванович,goryukroman@mail.ru,https://api.hh.ru/employers/122875
1416739,ГЕКТОР,"Новосибирск, улица Николая Островского, 195",55.053,82.949301,,,https://api.hh.ru/employers/1416739
3945022,СпецТехСнаб,"Новосибирск, улица Ватутина, 51",54.981019,82.904898,Андрей,,https://api.hh.ru/employers/3945022
154207,"Клинол, компания",,,,,,https://api.hh.ru/employers/154207
23040,Банк Открытие,,,,,,https://api.hh.ru/employers/23040
5184,НИКАМЕД,,,,Зоткина Мария Михайловна,zotkina.mm@orteka.ru,https://api.hh.ru/employers/5184
2988326,МБУ Молодежный Центр Пионер,,,,,,https://api.hh.ru/employers/2988326
160939,Главновосибирскстрой,"Новосибирск, 2-я Станционная улица, 52а",55.003441,82.805841,Чернявская Виктория,v.gridneva@ao-gns.ru,https://api.hh.ru/employers/160939
2726362,Агентство Правовой Защиты Новая Жизнь,"Новосибирск, улица Ленина, 48",55.032134,82.90346,Салимова Виктория,v.salimova@apznewlife.ru,https://api.hh.ru/employers/2726362
1444261,Happy People,,,,,,https://api.hh.ru/employers/1444261
3529,Сбербанк,,,,Команда подбора персонала Сбербанк,,https://api.hh.ru/employers/3529
2518189,Технология,"Новосибирск, проспект Димитрова, 4/1",55.029601,82.908383,Сапелкина Ирина ,sapelkina@teh-rf.com,https://api.hh.ru/employers/2518189
4150368,ЦФК-СФЗ,,,,,,https://api.hh.ru/employers/4150368
2385559,Манхэттен,"Новосибирск, Красный проспект, 17/1",55.026164,82.920852, Анна Николаевна,nsk@600654.ru,https://api.hh.ru/employers/2385559
3058601,Технокадры,"Новосибирск, Ленинская линия, метро Заельцовская",55.05941,82.912488,Зарубина Анна,technokadry@gmail.com,https://api.hh.ru/employers/3058601
1122462,Skyeng,,,,,,https://api.hh.ru/employers/1122462
2930624,НовыйДиван,,,,Ольга ,nemzevaov@gmail.com,https://api.hh.ru/employers/2930624
119488,"Консалтинговая группа ""54""","Новосибирск, улица Ленина, 52",55.033341,82.902104,,,https://api.hh.ru/employers/119488
542072,АМТ-group,"Новосибирск, улица Немировича-Данченко, 120/2",54.974246,82.905796,Митус Татьяна Викторовна,t.mitus@amtrus.ru,https://api.hh.ru/employers/542072
628375,Антик,"Новосибирск, Большевистская улица, 131",54.999382,82.959893,Гончарова Елена Игоревна,e.goncharova@autbuh.ru,https://api.hh.ru/employers/628375
2334525,ESTIMA CERAMICA,"Новосибирск, улица Кирова, 29",55.016523,82.948358,,,https://api.hh.ru/employers/2334525
4728,"Ангстрем, Группа компаний",,,,Марина Алексеевна,msharapova@retail-mebel.ru,https://api.hh.ru/employers/4728
2402442,Маринс Парк Отель Новосибирск,"Новосибирск, Вокзальная магистраль, 1",55.035519,82.900577,Веселова Раиса Валерьевна,veselovarv@hotel-novosibirsk.ru,https://api.hh.ru/employers/2402442
1141137,Юридическое партнерство Курсив,"Новосибирск, Депутатская улица, 46",55.028888,82.926484,,,https://api.hh.ru/employers/1141137
7588,Сетелем Банк,"Новосибирск, улица Романова, 55",55.035973,82.930563,,,https://api.hh.ru/employers/7588
612424,SPRING,"Новосибирск, Линейная, 134а",55.052814,82.931254,Греф Анна Александровна,kadr-nsk@omspring.ru,https://api.hh.ru/employers/612424
130387,"Паоло Конте, Компания","Новосибирск, улица Гоголя, 13",55.043721,82.922334,Свежинина Юлия,novosibdop1@paoloconte.ru,https://api.hh.ru/employers/130387
3856393,Ирезуми,,,,Наталья Борисовна,atlantik42@gmail.com,https://api.hh.ru/employers/3856393
550610,ГЕБА,"Новосибирск, Станционная улица, 38",54.997946,82.84595,,,https://api.hh.ru/employers/550610
7465,Rendez-vous,,,,Бочкова Алина Андреевна,a.bochkova@rendez-vous.ru,https://api.hh.ru/employers/7465
2895510,Папа Карло,"Новосибирск, Серебренниковская улица, 9",55.018076,82.927275,Константин,k.pashko@pizzacarlo.ru,https://api.hh.ru/employers/2895510
10227,НОВИКОМБАНК,,,,,,https://api.hh.ru/employers/10227
1068711,"Тион, системы очистки воздуха","Новосибирск, микрорайон Академгородок, Инженерная улица, 20",54.854035,83.112202,Слесаренко Мария,slesarenko-ma@tion.ru,https://api.hh.ru/employers/1068711
608868,River Park Hotel,"Новосибирск, улица Добролюбова, 2",55.002666,82.943561,Ульянова Ольга,oyulyanova@riverpark.ru,https://api.hh.ru/employers/608868
1320673,Защита Югры,,,,Светлана Анатольевна,rabota@zu01.ru,https://api.hh.ru/employers/1320673
3315744,Генезис,,,,,,https://api.hh.ru/employers/3315744
2809675,ВостокСибТорг,"Новосибирск, улица Галущака, 17",55.053959,82.909129,Фрибус Федор,29010418@list.ru,https://api.hh.ru/employers/2809675
34746,NPM,"Новосибирск, Большая улица, 254/1",55.00612,82.885117,Воробьева Екатерина,vorobeva_es@npmgroup.ru,https://api.hh.ru/employers/34746
99993,МодульБанк,"Новосибирск, Планетная улица, 30к2А",55.048358,82.956901,,,https://api.hh.ru/employers/99993
1006279,Группа компаний «SWEB GROUP»,"Новосибирск, улица Некрасова, 63/1",55.04742,82.93686,,,https://api.hh.ru/employers/1006279
2771696,АйТи Мегастар,,,,Заря Анна,a.zarya@itmegastar.com,https://api.hh.ru/employers/2771696
1326006,ВИРА-Строй,"Новосибирск, Театральная улица, 42",55.080627,82.96,Шандарова Наталья,personal@vira-stroy.ru,https://api.hh.ru/employers/1326006
2009846,Артлоджик,,,,,,https://api.hh.ru/employers/2009846
1013312,Холдинговая компания Новолекс,,,,Большанина Светлана,,https://api.hh.ru/employers/1013312
3947495,МИГ,,,,Максим Александрович,mig.3@inbox.ru,https://api.hh.ru/employers/3947495
1111042,Суши WOK,"Новосибирск, Красный проспект, 200",55.063395,82.912632,Чагина Галина,hrnskwok@rambler.ru,https://api.hh.ru/employers/1111042
2604312,N1.RU,"Новосибирск, Депутатская улица, 46",55.028888,82.926484,Алексева Валерия,v.alekseeva@n1.ru,https://api.hh.ru/employers/2604312
3388,Газпромбанк,,,,,,https://api.hh.ru/employers/3388
3060030,Косметические системы,"Новосибирск, Красный проспект, 17",55.026592,82.920744,Агаева Рейна,reichellady2009@yandex.ru,https://api.hh.ru/employers/3060030
1419273,Работут,,,,Соловьева Влада Сергеевна,v.soloveva@rabotut.ru,https://api.hh.ru/employers/1419273
1329278,"ЖИЛФОНД, агентство недвижимости",,,,Вячеслав,chernyavskiy.v@jilfond.ru,https://api.hh.ru/employers/1329278
578597,Хелвет,,,,Алимкина Наталия Валерьевна,nalimkina@helvet.ru,https://api.hh.ru/employers/578597
1975466,AD.RU,"Новосибирск, улица Семьи Шамшиных, 64",55.041839,82.930069,,,https://api.hh.ru/employers/1975466
1237377,Санаторий Родник Алтая (Представительство Новосибирск),"Новосибирск, улица Некрасова, 42",55.04547,82.925667,Ольга,ra2@rodnik.su,https://api.hh.ru/employers/1237377
54979,АШАН Ритейл Россия,"Новосибирск, улица Ватутина, 107",54.96423,82.936465,Оводнева Инна,i.ovodneva@auchan.ru,https://api.hh.ru/employers/54979
4925,Kelly Services,,,,,,https://api.hh.ru/employers/4925
625332,БУРГЕР КИНГ РОССИЯ,,,,Коновалова Александра Юрьевна,alexandra.konovalova@burgerking.ru,https://api.hh.ru/employers/625332
1976850,Единый Центр,"Новосибирск, улица Кошурникова, 8",55.042979,82.951152,Овсепян Тина,o.t.kras@edin.center,https://api.hh.ru/employers/1976850
1762145,ЗСКТерминал,"Новосибирск, улица Максима Горького, 79",55.027903,82.926727,Маргулис Софья,slmargulis@zscterminal.ru,https://api.hh.ru/employers/1762145
1189320,"Бристоль, сеть магазинов",,,,Юлия,,https://api.hh.ru/employers/1189320
3461050,Светофор (ООО Торгсервис 342),,,,Андрей,torg142@bk.ru,https://api.hh.ru/employers/3461050
4554449,Иванова Галина Ибрагимовна,,,,Погребнякова Ксения,xeniapogrebnyakova@yandex.ru,https://api.hh.ru/employers/4554449
39250,ЭВАЛАР,,,,,,https://api.hh.ru/employers/39250
4552457,Чисто5,,,,Данил,info@chisto5.com,https://api.hh.ru/employers/4552457
4284051,Метрополис,,,,,,https://api.hh.ru/employers/4284051
6628,УК Фуд-Мастер,,,,Анастасия,a.snegireva@food-master.ru,https://api.hh.ru/employers/6628
4196852,Сфера,,,,Артем,,https://api.hh.ru/employers/4196852
222779,Экспресс Точка Ру,,,,Соловьева Дарья Александровна,solovyova@express.ru,https://api.hh.ru/employers/222779
601044,NO ONE,"Новосибирск, улица Гоголя, 13",55.043721,82.922334,Евгения,nsk-gallery@noone.ru,https://api.hh.ru/employers/601044
3457006,ИТЭК - Новосибирск,"Новосибирск, Ядринцевская улица, 68/1",55.03345,82.932934,Екатерина,,https://api.hh.ru/employers/3457006
197120,Аскания,"Новосибирск, 1-я улица Ельцовка, 1",55.04595,82.873502,Смирнова Евгения,e.smirnova@voir.ru,https://api.hh.ru/employers/197120
1205479,Форвард,"Новосибирск, Линейная улица, 47/2",55.052381,82.921391,Анатолий Николаевич,9@autotrenajer.ru,https://api.hh.ru/employers/1205479
3909239,НМЗ Им. Кузьмина,,,,Ильин Денис Михайлович,ilyin.dm@mc.ru,https://api.hh.ru/employers/3909239
91168,ДЕАЛ,"Новосибирск, улица Брюллова, 6а",54.956306,82.942896,Пустовалов Андрей Валентинович,a.pustovalov@dealprint.ru,https://api.hh.ru/employers/91168
3512705,Шарангович Елена Сергеевна,,,,Ланг Алёна Викторовна,2630052@mail.ru,https://api.hh.ru/employers/3512705
1356403,Федеральная сеть фотостудий Fashion Box,"Новосибирск, Нарымская улица, 23",55.043732,82.904817,Чепурная Алевтина,chepurnaya@fashion-box.ru,https://api.hh.ru/employers/1356403
2146883,Магистраль,"Новосибирск, улица Добролюбова, 16А",55.009048,82.953182,Вера,info@mstral.ru,https://api.hh.ru/employers/2146883
4488136,Агентство кадровых решений ПАЗЛ,,,,Давидик Нина Константиновна,hr-puzzle@mail.ru,https://api.hh.ru/employers/4488136
2978343,Семенов Олег Геннадьевич,,,,,,https://api.hh.ru/employers/2978343
726371,АЙКРАФТ,"Новосибирск, Красный проспект, 101",55.055733,82.911905,Джавадова Азиза,,https://api.hh.ru/employers/726371
15478,Mail.Ru Group,,,,,,https://api.hh.ru/employers/15478
902887,Авиакомпозит,"Новосибирск, улица Ползунова, 15",55.064597,82.989214,Чикалина Мария,kadry@aviacompozit.com,https://api.hh.ru/employers/902887
2964,Modern Staff,,,,Елизавета Романовна,eer@mstaff.ru,https://api.hh.ru/employers/2964
3153540,PRIME CALL (SPP Solutions Ltd),,,,,,https://api.hh.ru/employers/3153540
707836,Промхимтех,"Новосибирск, Фабричная улица, 10",55.020373,82.911752,,,https://api.hh.ru/employers/707836
1391819,КСК-Эйч Ар,,,,Александр,vlasov@csc-hr.ru,https://api.hh.ru/employers/1391819
4272120,Богирова Ирина Александровна,,,,Виктория Дмитриевна ,artusadbansk@yandex.ru,https://api.hh.ru/employers/4272120
2463837,СТАРТЕКС,"Новосибирск, улица Кропоткина, 507",55.062704,82.96151,Алексеев Иван,i.alekseev@star-tex.ru,https://api.hh.ru/employers/2463837
2437391,Цирюльник,"Новосибирск, улица Кирова, 108",55.012625,82.952383,Ася,shapikova@mail.ru,https://api.hh.ru/employers/2437391
169875,Газпромбанк Лизинг,,,,,,https://api.hh.ru/employers/169875
3919727,Новосибирский картонно-бумажный комбинат,,,,Степанова Елена,nkbkok@mail.ru,https://api.hh.ru/employers/3919727
985,Кадровое агентство Юнити,,,,,,https://api.hh.ru/employers/985
112694,Inventive Retail Group,,,,,,https://api.hh.ru/employers/112694
2466738,АКВА СИТИ,"Новосибирск, 1-я Чулымская улица, 112/2",55.013828,82.888647,Толстогузова Анна,a.tolstoguzova@yasnybereg.ru,https://api.hh.ru/employers/2466738
4394,"ОТП Банк, АО (OTP bank)",,,,Щелупа Евгения,e.shchelupa@omsk.otpbank.ru,https://api.hh.ru/employers/4394
1579446,Сибгипротранс,"Новосибирск, Вокзальная магистраль, 15",55.032433,82.913045,Порфирьев Олег Геннадьевич,koigi@sibgiprotrans.ru,https://api.hh.ru/employers/1579446
771235,Сибиар,"Новосибирск, Ленинский район, ул. Станционная, 78",,,Борисова Елена Александровна,kadr@sibiar.ru,https://api.hh.ru/employers/771235
3936961,Милюхин Владимир Геннадьевич,,,,Милюхин Владимир Геннадьевич,vladimir1111515@ya.ru,https://api.hh.ru/employers/3936961
2678380,ПО «Трубное решение»,,,,Евгений Александрович,2279177@bk.ru,https://api.hh.ru/employers/2678380
4404573,Стс-Авто,,,,Павел,2084594@mail.ru,https://api.hh.ru/employers/4404573
49817,ЛУИС+,"Новосибирск, Фабричная улица, 10",55.020373,82.911752,Окунева Екатерина,okuneva.ekaterina@luis.ru,https://api.hh.ru/employers/49817
4032133,Примула,,,,,,https://api.hh.ru/employers/4032133
2571258,Андромед-клиника,"Новосибирск, улица Гоголя, 38",55.043381,82.935683,,,https://api.hh.ru/employers/2571258
3515036,Видеоспецсервис,,,,Олег Владимирович,video@vss-nsk.ru,https://api.hh.ru/employers/3515036
868953,Торговая сеть OHARA,"Новосибирск, улица Ватутина, 107",54.96408,82.936069,Оксана Николаевна,e.harchenko@ohara.su,https://api.hh.ru/employers/868953
1189960,Техноком,,,,Дмитриева Яна,hrm@tk-nsk.ru,https://api.hh.ru/employers/1189960
144335,Группа компаний OPEN,,,,,,https://api.hh.ru/employers/144335
685558,"Родник Алтая, санаторий","Новосибирск, улица Некрасова, 42",55.04547,82.925667,,,https://api.hh.ru/employers/685558
196621,FIX PRICE,,,,Мария Михайловна,miakupova@fix-price.ru,https://api.hh.ru/employers/196621
2651568,Пицца Синица,"Новосибирск, улица Фрунзе, 230",55.039094,82.954907,,,https://api.hh.ru/employers/2651568
1238295,Инвестиционная компания РосРегион Развитие,"Новосибирск, Большевистская улица, 270",54.985473,82.995277,Елена Сергеевна,2460750@mail.ru,https://api.hh.ru/employers/1238295
4283898,Art Prime Time (ИП Журавлева Софья Сергеевна ),"Новосибирск, улица Сакко и Ванцетти, 77",55.020905,82.946804,,,https://api.hh.ru/employers/4283898
2888233,Автостатус,"Новосибирск, Красный проспект, 200",55.063385,82.912515,Ирина Николаевна,as2487848@yandex.ru,https://api.hh.ru/employers/2888233
2680390,Стройбум,"Новосибирск, улица Салтыкова-Щедрина, 9",55.03087,82.907269,Дмитрий,901@3832456.ru,https://api.hh.ru/employers/2680390
2748,Ростелеком,"Новосибирск, улица Дуси Ковальчук, 258/2",55.057285,82.908527,,,https://api.hh.ru/employers/2748
2514504,Арпаплюс,"Новосибирск, Новая улица, 28",55.074561,82.941208,,,https://api.hh.ru/employers/2514504
3162295,Edison Studio,,,,,,https://api.hh.ru/employers/3162295
36356,Autodoc,"Новосибирск, улица Мира, 54",54.962923,82.922945,Пугаченко Ольга Сергеевна,pugachenko.о@autodoc.ru,https://api.hh.ru/employers/36356
831188,MZ5,,,,,,https://api.hh.ru/employers/831188
3124222,Атон экобезопасность и охрана труда,"Новосибирск, проспект Димитрова, 7",55.034771,82.91168,Оксана,hh54@atonlab.ru,https://api.hh.ru/employers/3124222
4374688,Автолайн,,,,Евгений Иванович,support-eei@yandex.ru,https://api.hh.ru/employers/4374688
6,ИДС Боржоми,,,,Блинова Полина,polina.blinova@ids-borjomi.ru,https://api.hh.ru/employers/6
3283716,Барбекю-центр,"Новосибирск, 2-я Складская улица, 6к2",54.9704114766,83.053604832,Ольга,olgabelonogova1990@gmail.com,https://api.hh.ru/employers/3283716
65348,Nike,,,,,,https://api.hh.ru/employers/65348
1946133,Регион торговля,"Новосибирск, улица Мичурина, 12А",55.041483,82.921957,Морозов Николай,kishmaraya@partsdirect.ru,https://api.hh.ru/employers/1946133
1357930,Аким-Н,"Новосибирск, Большевистская улица, 171",54.995911,82.969244,Быков Дмитрий Сергеевич,dima_bkov@mail.ru,https://api.hh.ru/employers/1357930
850123,Сеть магазинов женской одежды LIME,"Новосибирск, улица Ватутина, 107",54.96408,82.936069,,,https://api.hh.ru/employers/850123
73863,Сибтракскан,,,,Васильева Кристина ,vasileva@sibscan.ru,https://api.hh.ru/employers/73863
1645723,Рустехмаш,"Новосибирск, Северо-Чемской жилмассив, Тюменская улица, 14",54.954957,82.952643,Галина,gk@rustehmash.com,https://api.hh.ru/employers/1645723
1491966,Первое Национальное Рекламное Агентство,"Новосибирск, Коммунистическая улица, 2",55.022438,82.91292,Медведева Анна александровна,rop@1-ra.ru,https://api.hh.ru/employers/1491966
215015,Центр Харизма,"Новосибирск, улица Галущака, 2а",55.051432,82.902122,,,https://api.hh.ru/employers/215015
802892,Авантел,"Новосибирск, Нарымская, 27",55.045398,82.902805,Курашенко Вера,hr.nsk@avantel.ru,https://api.hh.ru/employers/802892
1740,Яндекс,,,,,,https://api.hh.ru/employers/1740
1265693,STERN OnlYYou Gerry Weber Max&Co,,,,Игонина Татьяна,fashion.school.stern@gmail.com,https://api.hh.ru/employers/1265693
533775,Workle,,,,,,https://api.hh.ru/employers/533775
49466,"Светофор, Сеть магазинов низких цен",,,,,,https://api.hh.ru/employers/49466
4079466,Грошик,,,,Астафьева Мария,astafeva83@mail.ru,https://api.hh.ru/employers/4079466
1985,ТЕГОЛА,,,,Мальцева Марина Евгеньевна,maltseva@tegola.ru,https://api.hh.ru/employers/1985
708455,Palmetta,,,,Аладина Ксения,aladina@afra.su,https://api.hh.ru/employers/708455
2318740,ЭталонМаркет,"Новосибирск, проспект Карла Маркса, 57",54.992399,82.911204,,,https://api.hh.ru/employers/2318740
1888,Coca-Cola HBC Russia,"Новосибирск, площадь Карла Маркса, 7",54.980394,82.897882,,,https://api.hh.ru/employers/1888
1681610,DOSKI,,,,Анастасия,personal@bardoski.ru,https://api.hh.ru/employers/1681610
101929,Национальная почтовая служба,,,,Евгения,kornilovavd@n-post.ru,https://api.hh.ru/employers/101929
1110435,Профи Hard Services Soft,"Новосибирск, улица Писарева, 1",55.048637,82.912686,Ирина,resume@sibprofi.ru,https://api.hh.ru/employers/1110435
4090705,ИРМА Н,,,,Денис,kiselev.de2017@yandex.ru,https://api.hh.ru/employers/4090705
688,"Спектрум, Группа компаний","Новосибирск, улица Шевченко, 15/1",55.016404,82.933509,,,https://api.hh.ru/employers/688
1179289,Авексима,,,,,,https://api.hh.ru/employers/1179289
3930040,Новые технологии,,,,Марвина Татьяна,,https://api.hh.ru/employers/3930040
1433,Carcade Leasing,,,,,,https://api.hh.ru/employers/1433
4182749,Красин Сергей Николаевич,,,,Алексеева Елена Александровна,e.alekseeva@forever777.ru,https://api.hh.ru/employers/4182749
1076236,Отличные наличные,"Новосибирск, улица Гоголя, 44",55.044108,82.942843,,,https://api.hh.ru/employers/1076236
2174870,ElSharm,,,,,,https://api.hh.ru/employers/2174870
648857,Центр культуры и отдыха ПОБЕДА,"Новосибирск, улица Ленина, 7",55.029054,82.914752,Аббасова Жанна,,https://api.hh.ru/employers/648857
4501742,ЖД-Сервис Сибирь,,,,Светлана,zharkova.1988@bk.ru,https://api.hh.ru/employers/4501742
649521,wintergreen,,,,,,https://api.hh.ru/employers/649521
2827426,Паезе Косметикс Рус,"Новосибирск, Красный проспект, 17",55.026592,82.920744,,,https://api.hh.ru/employers/2827426
226306,ЭкоНива-АПК Холдинг,,,,,,https://api.hh.ru/employers/226306
48184,Кадровое агентство Алексея Сухорукова,,,,,,https://api.hh.ru/employers/48184
1319862,ГБУЗ НСО ГП №24,"Новосибирск, улица Станиславского, 52",54.966566,82.873214,Саломатина Лариса Геннадьевна,pol24ok@gmail.com,https://api.hh.ru/employers/1319862
1318235,ГБУЗ НСО Городская клиническая поликлиника №22,"Новосибирск, Затулинский жилмассив, улица Зорге, 47/1",54.93526,82.910413,Жданов Дмитрий Владимирович (заведующий отделением),gp22_kadry@mail.ru,https://api.hh.ru/employers/1318235
3506811,СПЕЦПРОМ,,,,Муравьев Алексей Владимирович,9335179@mail.ru,https://api.hh.ru/employers/3506811
4525383,Альфа клиник,"Новосибирск, улица Галущака, 5",55.051969,82.905015,,,https://api.hh.ru/employers/4525383
2973178,Дентал-Эстетика,"Новосибирск, Красный проспект, 94",55.052783,82.915291,Анастасия ,den.esteticka2017@yandex.ru,https://api.hh.ru/employers/2973178
681883,Велесстрой,,,,Артамонов Дмитрий ,artamonovda@velesstroy.com,https://api.hh.ru/employers/681883
1966,Тесли,,,, Евгения,evgeniya.bazarkina@tesli.com,https://api.hh.ru/employers/1966
800139,Центр Новых Медицинских Технологий,"Новосибирск, Советский район, микрорайон Академгородок, проспект Академика Коптюга, 13",54.843051,83.101916,,,https://api.hh.ru/employers/800139
4491755,ПК ФРА Агрорусь,,,,Иванов Иван Константинович,pkagrorus@yandex.ru,https://api.hh.ru/employers/4491755
2325231,АНО Агентство по Развитию Человеческого Капитала На Дальнем Востоке и в Арктике,,,,,,https://api.hh.ru/employers/2325231
131822,"Горводоканал, МУП г.Новосибирска",,,,Отдел персонала,gvk-personal@mail.ru,https://api.hh.ru/employers/131822
958927,Новосибирский завод радиодеталей Оксид (АО «Росэлектроника»),"Новосибирск, улица Кирова, 82",55.014055,82.945529,Шмелёва Людмила,orp@nzroksid.ru,https://api.hh.ru/employers/958927
1795453,ТД Трианон,"Новосибирск, Станционная улица, 30А",54.998256,82.853074,Демиденко Алена,kadry@trianon-nsk.ru,https://api.hh.ru/employers/1795453
1180032,ГБУЗ НСО Станция скорой медицинской помощи,"Новосибирск, улица Семьи Шамшиных, 42",55.036417,82.932467,,,https://api.hh.ru/employers/1180032
72047,Скиф-Карго,"Новосибирск, Толмачёвская улица, 43/1",54.969869,82.79842,Грачев Виталий,grachev@skif-cargo.ru,https://api.hh.ru/employers/72047
2437020,Поликлиника Профмедосмотр,"Новосибирск, улица Челюскинцев, 44/1",55.040116,82.908805,Евгения Александровна,prof-medosmotr@yandex.ru,https://api.hh.ru/employers/2437020
1689259,JCat.ru,,,,Артур Альбертович,668688@list.ru,https://api.hh.ru/employers/1689259
689473,Ворк,,,,,,https://api.hh.ru/employers/689473
3621743,Биочистка БИОФОКС,"Новосибирск, улица Мичурина, 12Б",55.041921,82.921786,Александр,biofox_nsk@mail.ru,https://api.hh.ru/employers/3621743
2116025,АВТОНАВИКС ГРУПП,"Новосибирск, Кривощековская улица, 15к7",55.016177,82.928425,Черпинский Дмитрий Олегович,info@avtonavix.ru,https://api.hh.ru/employers/2116025
47407,Консалтинговый Центр «Вакансия Плюс»,Новосибирск ул. Мусы Джалиля 3/1 офис.204,,,Анисимова Ольга ,mail@vakansia-plus.ru,https://api.hh.ru/employers/47407
3286039,ГАРАНТ,"Новосибирск, Пристанский переулок, 5",55.014995,82.918489,Демченко Сергей,demyan_3232@mail.ru,https://api.hh.ru/employers/3286039
152955,Теплострой,,,,,,https://api.hh.ru/employers/152955
83264,БИБИКОЛЬ РУС,,,,,,https://api.hh.ru/employers/83264
829326,Фармасинтез,,,,Быстрова Надежда Надежда,n.bystrova@pharmasyntez.com,https://api.hh.ru/employers/829326
1140385,Nordgold,,,,Борисова Ольга,olga.borisova@nordgold.com,https://api.hh.ru/employers/1140385
1846,Brainpower CIS,,,,,,https://api.hh.ru/employers/1846
51207,Энергомост,,,,,,https://api.hh.ru/employers/51207
4370612,Сургутский линейный отдел МВД России на транспорте,,,,Бастьян Денис,86scarecrow86@gmail.com,https://api.hh.ru/employers/4370612
4231924,ГКУ НСО Хозяйственное управление,"Новосибирск, Красный проспект, 18",55.021818,82.923466,Иванова Юлия Андреевна,hozy-nsk@mail.ru,https://api.hh.ru/employers/4231924
3060194,Айтигенио,,,,HR менеджер,job@itgen.io,https://api.hh.ru/employers/3060194
70416,"Обувь России, ГК",,,,Татьяна ,hr46@obuvrus.ru,https://api.hh.ru/employers/70416
191373,Счастливый взгляд,,,,Тимофеева Ксения,k.timofeeva@happylook.ru,https://api.hh.ru/employers/191373
2267571,АКТИВ НСК,"Новосибирск, Беловежская улица, 2/1",54.964887,82.89905,,,https://api.hh.ru/employers/2267571
796212,Ролатекс,"Новосибирск, улица Зелёная Горка, 1к1",54.894316,83.104611,Баранова Ольга Викторовна,2105@rolatex.ru,https://api.hh.ru/employers/796212
2884,ЭККО-РОС,"Новосибирск, Военная улица, 5",55.028718,82.936653,Непомнящих Надежда,novosib2@ecco-ros.ru,https://api.hh.ru/employers/2884
620502,Крупнейший дистрибьютор продуктов питания в Алтайском крае,"Новосибирск, Станционная улица, 30Ак15",55.008851,82.835045,Елена,nsk117@extpost.ru,https://api.hh.ru/employers/620502
2699939,Восток Тулс,,,,Глазкова Екатерина,glazkova@bort-global.com,https://api.hh.ru/employers/2699939
996763,"HR-trend, Консалтинговая Компания",,,,,,https://api.hh.ru/employers/996763
3395797,ДатаКрат-С,"Новосибирск, улица Блюхера, 71Б",54.992337,82.902975,Назарова Ирина Григорьевна,nazarova@datakrat.com,https://api.hh.ru/employers/3395797
3634424,Ростелеком Контакт-Центр,"Новосибирск, проспект Димитрова, 5",55.03361,82.909587,Легких Дарья Юрьевна,d.legkikh@rostelecom-cc.ru,https://api.hh.ru/employers/3634424
1151222,Medtrade Medical Company,"Новосибирск, улица Сакко и Ванцетти, 77",55.020956,82.946867,Бурлак Татьяна,t.burlak@cmtrade.ru,https://api.hh.ru/employers/1151222
3788414,ИФК МЕРА,"Новосибирск, улица Кирова, 48",55.017746,82.940237,Стукалова Ольга ,info.nskmera@gmail.com,https://api.hh.ru/employers/3788414
41862,СКБ Контур,"Новосибирск, проспект Димитрова, 4/1",55.02957,82.908365,Мошкина Ольга,ov.moshkina@skbkontur.ru,https://api.hh.ru/employers/41862
3530,СДЭК,"г.Новосибирск, ул. Большевистская, 101",,,,,https://api.hh.ru/employers/3530
1247819,Сеть магазинов Постелька,,,,Алена,3@900448.ru,https://api.hh.ru/employers/1247819
855984,Газпром трансгаз Томск,"Новосибирск, Выборная улица, 241",54.990085,83.053156,,,https://api.hh.ru/employers/855984
2888339,Магдин Юрий Васильевич,,,,Юрий,mirage-nsk@mail.ru,https://api.hh.ru/employers/2888339
4500860,Золотой Актив,посёлок городского типа Усть-Нера,64.567743,143.232195,Наталья Алексеевна,n.arychenkova@taisu.ru,https://api.hh.ru/employers/4500860
625194,"СитиКлининг,ООО",Новосибирск,55.030199,82.92043,Пеленкова Екатерина,e.pelenkova@citycleaning.ru,https://api.hh.ru/employers/625194
4195986,Студия Алины Загорулиной,"Новосибирск, Трудовая улица",55.032568,82.927787,,,https://api.hh.ru/employers/4195986
4039,adidas,,,,,,https://api.hh.ru/employers/4039
914568,Интернет Университет,,,,,,https://api.hh.ru/employers/914568
2399034,ТД РАДОГРАД,"Новосибирск, улица Серафимовича, 4",54.981665,82.879943,Межуев Александр,am@erkon-nsk.com,https://api.hh.ru/employers/2399034
1116850,Экран-оптические системы,"Новосибирск, ул.Даргомыжского,8а",,,Ковалев Алексей Борисович,okadr1@ekran-os.ru,https://api.hh.ru/employers/1116850
2545072,Метаком,,,,Лебедев Николай,lebedev@metakom-n.ru,https://api.hh.ru/employers/2545072
81391,"S.F. Group ( Gant,Barbour)",,,,Светлана Кирнова,alievatv@sfgp.ru,https://api.hh.ru/employers/81391
1391608,Novosibirsk Marriott Hotel,"Новосибирск, улица Орджоникидзе, 31",55.031541,82.923502,Яна,yana.marina@marriott.com,https://api.hh.ru/employers/1391608
580554,Ремтехкомплект,,,,Гайдай Ирина,hr@rtkco.ru,https://api.hh.ru/employers/580554
4547639,Эстель-Новосибирск,,,,,,https://api.hh.ru/employers/4547639
58320,Россельхозбанк,,,,,,https://api.hh.ru/employers/58320
577438,Индивидуальные Бизнес Решения,,,,,,https://api.hh.ru/employers/577438
1478967,ГлавЭлектроСнаб,,,,,,https://api.hh.ru/employers/1478967
3730307,Стройтрансгаз Трубопроводстрой,,,,Корчагина Екатерина Юрьевна,e.korchagina@tps.stg.ru,https://api.hh.ru/employers/3730307
2834726,AG Service,,,,Алёна Дмитриевна,,https://api.hh.ru/employers/2834726
4545063,Евразия Монолит Строй,"Новосибирск, Красный проспект, 234",55.075164,82.909982,Сизов Сергей,softyara99999@gmail.com,https://api.hh.ru/employers/4545063
1033940,Дентал-Сервис,"Новосибирск, Ленинская линия, метро Заельцовская",55.05941,82.912488,Герценштейн Дарья,gertsenshtein@dentservice.ru,https://api.hh.ru/employers/1033940
46529,"Балтийский лизинг, группа компаний","Новосибирск, улица 1905 года, 59",55.043138,82.903344,,,https://api.hh.ru/employers/46529
23777,Торговый Отдел Посольства Республики Корея,,,,,,https://api.hh.ru/employers/23777
247137,Doubletree by Hilton Novosibirsk,"Новосибирск, Каменская улица, 7/1",55.026381,82.928209,Отдел персонала,hr@lrp-hotel.ru,https://api.hh.ru/employers/247137
3988788,Сараев Михаил Юрьевич,"Новосибирск, Нижегородская улица, 18",55.016001,82.938737,Сараев Михаил,2583728@bk.ru,https://api.hh.ru/employers/3988788
154100,ПРОДУКТЫ ЕРМОЛИНО,,,,,,https://api.hh.ru/employers/154100
4303356,Муниципальное унитарное предприятие Новосибирского Района Новосибирской Области Ложок,,,,Добровольская Елена Валерьевна,logok2019@mail.ru,https://api.hh.ru/employers/4303356
612186,Группа компаний «Новосибхолод»,,,,Чернышова Оксана Владимировна,ov.chernishova@mail.ru,https://api.hh.ru/employers/612186
622927,Ритейл Навигатор,"Новосибирск, улица Ватутина, 107",54.964463,82.93703,Зайцев Павел,resume.msk.five@retail-navigator.ru,https://api.hh.ru/employers/622927
3690477,ИНИЦИАТИВА,,,,Наталья Александровна,vasyuckowan@yandex.ru,https://api.hh.ru/employers/3690477
2506934,ТД МОНОЛИТ,"Новосибирск, Советский район, микрорайон Академгородок, Пасечная улица, 1",54.864684,83.113262,. Татьяна Владимировна,tdm54@mail.ru,https://api.hh.ru/employers/2506934
2112668,MIMIMODA,,,,,,https://api.hh.ru/employers/2112668
100567,Pelican,"Новосибирск, улица Фрунзе, 86",55.037381,82.933707,Дрёмина Татьяна Федоровна,dremina@pelican-style.ru,https://api.hh.ru/employers/100567
52719,"Орматек, ГК",,,,Никитина Анастасия,nikitina_am@ormatek.com,https://api.hh.ru/employers/52719
1429869,Томскгазстрой,"Томск, улица Смирнова, 7/11",56.52895,84.989843,Отдел Кадров,ok@tgs.tomsk.ru,https://api.hh.ru/employers/1429869
2854331,Завод Хелффер,"Новосибирск, улица Петухова, 51/2",54.9517,82.876143,Сухаржевский Станислав Витальевич,hr@helffer.ru,https://api.hh.ru/employers/2854331
3190984,Первая Сервисная Компания,"Новосибирск, Комбинатский переулок",55.050148,82.97343,Моисеева Дарья Андреевна,moiseeva@psk-nsk.ru,https://api.hh.ru/employers/3190984
4460014,РэйлТранс,"Новосибирск, улица Бориса Богаткова, 99",55.021405,82.95629,Панина Анна,panina@rail-tr.ru,https://api.hh.ru/employers/4460014
158556,"Русь, Инвестиционно-строительная компания","Новосибирск, улица Тимирязева, 95",55.057935,82.902329,Константин Иванович,isk-rus@mail.ru,https://api.hh.ru/employers/158556
2021807,Суши Мастер,,,,,,https://api.hh.ru/employers/2021807
47939,Ак Барс Банк,"Новосибирск, проспект Димитрова, 7",55.034771,82.91168,Орлова Юлия,yuliya.orlova@akbars.ru,https://api.hh.ru/employers/47939
19496,STEP,,,,Супрун Анна,anna.hr.step@mail.ru,https://api.hh.ru/employers/19496
29413,Деловые Линии,"Новосибирск, Кировский район, Северный проезд, 37/3",54.945205,82.922496,,,https://api.hh.ru/employers/29413
926235,Директ Лайн,"Новосибирск, улица Фрунзе, 230",55.039073,82.95479,Сюняков Сергей,sergey.s@directline.pro,https://api.hh.ru/employers/926235
706953,СИНТЭП,"Новосибирск, улица Богдана Хмельницкого, 90",55.085904,82.976062,,,https://api.hh.ru/employers/706953
2198765,БКС,,,,Валентин,romyaldo@mail.ru,https://api.hh.ru/employers/2198765
3471,"Сухой, Компания","Новосибирск, ул. Ползунова, 15",,,,,https://api.hh.ru/employers/3471
1976635,"Агентство Горячих Туров, Туристическая Компания","Новосибирск, Коммунистическая улица, 35",55.023589,82.920214,,,https://api.hh.ru/employers/1976635
3477185,Мамино время,,,,Торопова Дарья,mamino_vremya_personal@mail.ru,https://api.hh.ru/employers/3477185
84794,Дверной Континент,,,,,,https://api.hh.ru/employers/84794
1151969,Нео-Пак,"Новосибирск, улица Даргомыжского, 8Ак18",55.075546,82.925882,Менеджер по персоналу,personal@n-pak.ru,https://api.hh.ru/employers/1151969
2748764,Сибирский проект,,,,,,https://api.hh.ru/employers/2748764
3127771,Trans-Siberian Gold (АО Тревожное зарево),,,,Елена,rabota@zarevo.ru,https://api.hh.ru/employers/3127771
4523767,Аврора,,,,Ермоленко Николай,cavalier24@mail.ru,https://api.hh.ru/employers/4523767
4555170,Сдершиков,,,,,,https://api.hh.ru/employers/4555170
2702762,Синнабон (ООО Глазурь),,,,,,https://api.hh.ru/employers/2702762
2631599,IQsоft,"Новосибирск, улица Шевченко, 15/1",55.016404,82.933509,Ольга,hr@iqsoft.pro,https://api.hh.ru/employers/2631599
55125,Новосибирскавтодор,"Новосибирск, Каменская улица, 19",55.026724182,82.9288075492,Подчернина Тамара Валерьевна,ok_pers@nskavd.ru,https://api.hh.ru/employers/55125
402,Компания ТрансТелеКом,"Новосибирск, Комсомольский проспект, 1к4",55.031071,82.899768,Камешкова Вероника,v.kameshkova@zs.ttk.ru,https://api.hh.ru/employers/402
791787,Планета здоровья,,,,Мальцева Анастасия,maltsevaav@mail.ru,https://api.hh.ru/employers/791787
2636151,Томская клининго-сервисная компания,,,,Татьяна Матвеевна,bashlykov@sibmail.com,https://api.hh.ru/employers/2636151
899777,ОйлГрупп,"Новосибирск, проспект Дзержинского, 1/3",55.04742,82.957252,,,https://api.hh.ru/employers/899777
3565331,Технологическая Компания Центр,,,,,,https://api.hh.ru/employers/3565331
3603372,Управление Роскомнадзора по Сибирскому Федеральному округу,"Новосибирск, Советская улица, 33",55.029239,82.916225,Ольга Александровна,rscsfo@ngs.ru,https://api.hh.ru/employers/3603372
3558,СОДЕКСО ЕВРОАЗИЯ,,,,,,https://api.hh.ru/employers/3558
35400,Международная сеть агентств недвижимости CENTURY 21 Россия,"Новосибирск, Красный проспект, 77/1",55.049498,82.914375,Мартынова Анна,martynova.anna@century21.ru,https://api.hh.ru/employers/35400
734346,Wellink,"Новосибирск, улица Николаева, 11",54.857984,83.110441,Гайворонская Екатерина,office-nsk@wellink.ru,https://api.hh.ru/employers/734346
2994882,ЭЛСИ ГРУПП,"Новосибирск, улица Кирова, 48",55.01771,82.940237,,,https://api.hh.ru/employers/2994882
1630873,Рикон,"Новосибирск, улица Галущака, 17",55.053959,82.909129,,,https://api.hh.ru/employers/1630873
1449626,Меделия,"Новосибирск, улица Восход, 22",55.012486,82.94251,Яковлева Ольга,da_vinchi_hr@mail.ru,https://api.hh.ru/employers/1449626
4212733,Управляющее Бюро Новый Мир,"Новосибирск, улица Добролюбова, 2А",55.002547,82.942528,Ковтоногова Анастасия,a.kovtonogova@nmhm.ru,https://api.hh.ru/employers/4212733
56433,Феррум,"Новосибирск, улица Дукача, 10",55.005764,82.787766,Фетисова Юлия ,fetisova.y@ferrum-n.ru,https://api.hh.ru/employers/56433
100424,"Единая электронная торговая площадка, АО (группа ВТБ)","Новосибирск, Владимировская улица, 2/1",55.030473,82.894522,,,https://api.hh.ru/employers/100424
128614,ТрансЛом,,,,Елена,e.novruzova@translom.ru,https://api.hh.ru/employers/128614
4519146,Автотитан 54,,,,Сергей Сергеевич,autotitan54@bk.ru,https://api.hh.ru/employers/4519146
11775,ЛЕОВИТ нутрио,,,,,,https://api.hh.ru/employers/11775
56319,АБИ Продакт,,,,Сапрыкина Екатерина Александровна,ekaterina.saprykina@abiproduct.ru,https://api.hh.ru/employers/56319
4131468,Мезенцева Евгения,,,,Мезенцева Евгения,zti.sib@gmail.com,https://api.hh.ru/employers/4131468
3720685,Начало Перемен,"Новосибирск, улица Челюскинцев, 18/2",55.039141,82.905616,Федорова Марина,personal@annp.ru,https://api.hh.ru/employers/3720685
65468,ЭПЛ Даймонд,,,,,,https://api.hh.ru/employers/65468
3825385,Ремонт бытовой техники,"Новосибирск, улица Лескова, 15",55.02507,82.945295,Алина,tehnikanskremont@yandex.ru,https://api.hh.ru/employers/3825385
52839,Ключавто,"Новосибирск, улица Жуковского, 96/2",55.070293,82.892932,,,https://api.hh.ru/employers/52839
3447423,Центр медицинского сопровождения,,,,Татьяна,t.scherbakova@izdorov.pro,https://api.hh.ru/employers/3447423
3994857,ИнВиТан,"Новосибирск, улица Крылова, 36",55.040771,82.930329,Марченко Сергей,marchenko.s0123@gmail.com,https://api.hh.ru/employers/3994857
4212693,СтройМонтаж,"Новосибирск, Каменская улица, 54",55.035096,82.927526,,,https://api.hh.ru/employers/4212693
2209466,УВД по Зеленоградскому АО ГУ МВД России по г. Москве,,,,Мыльников Михаил Александрович,zelenograd.zel@yandex.ru,https://api.hh.ru/employers/2209466
1062084,"Ситилаб, Научно-методический центр клинической лабораторной диагностики",,,,,,https://api.hh.ru/employers/1062084
206664,ЭкоНиваТехника-Холдинг,,,,Терехова Юлия,juliya.terekhova@ekoniva.com,https://api.hh.ru/employers/206664
3499999,Элли,"Барнаул, улица Шумакова, 23А",53.337312,83.678464,Яна Владимировна,yanagrow@mail.ru,https://api.hh.ru/employers/3499999
26624,Positive Technologies,,,,,,https://api.hh.ru/employers/26624
586782,Быстроденьги,,,,Бармотина Анастасия,abarmotina@bistrodengi.ru,https://api.hh.ru/employers/586782
3320227,Оптикус Плюс,,,,Смолкина Ирина,info.russia@opticuss.com,https://api.hh.ru/employers/3320227
2580609,Курьер Сервис Экспресс Новосибирск,"Новосибирск, улица Писарева, 73",55.04971,82.925568,Федотов Яков Сергеевич,yakov.fedotov@ovb.cse.ru,https://api.hh.ru/employers/2580609
2824746,Сармат,"Новосибирск, улица Богдана Хмельницкого, 124",55.106855,82.985845,Лариса Владимировна,personal@sarmat-nsk.ru,https://api.hh.ru/employers/2824746
81873,Иркутская нефтяная компания,,,,,,https://api.hh.ru/employers/81873
51761,"Сибирский Гигант, Торговый холдинг","Новосибирск, Автогенная улица, 126к2",55.021911,82.986968,Устинова Елена,hr.glman@sibgigant.ru,https://api.hh.ru/employers/51761
4485290,Тонких Александр Анатольевич,,,,,,https://api.hh.ru/employers/4485290
2729043,ДВК Групп,"Новосибирск, проспект Димитрова, 4/1",55.02957,82.908365,Красникова Яна Владимировна,krasnikowa@dvkgroupp.ru,https://api.hh.ru/employers/2729043
4549733,Азон,"Новосибирск, улица Крылова, 36",55.040771,82.930329,Асеев Денис,denaseev888@gmail.com,https://api.hh.ru/employers/4549733
3443,Банк ДОМ.РФ,"Новосибирск, улица Фрунзе, 86",55.037381,82.933509,,,https://api.hh.ru/employers/3443
3427,Сибирская Хлебная Корпорация,"Новосибирск, Широкая улица, 35",54.993252,82.854251,Кривошеева Юлия Витальевна,v-ok@voshodhleb.ru,https://api.hh.ru/employers/3427
83056,Action,,,,,,https://api.hh.ru/employers/83056
4257751,Пекарня Славгород,,,,,,https://api.hh.ru/employers/4257751
245592,РОССКО,,,,,,https://api.hh.ru/employers/245592
4204167,ИнтерПроект,"Новосибирск, Советская улица, 64",55.048518,82.911384,Яна Валерьевна,ya.nechunaeva@interproekt.pro,https://api.hh.ru/employers/4204167
566231,Новая Линия,,,,,,https://api.hh.ru/employers/566231
2910419,Серебряный источник,,,,Дурнов Петр Александрович,p.durnov@etalon-group.ru,https://api.hh.ru/employers/2910419
628523,ФАРМАКОПЕЙКА,,,,Егорова Вероника,egorovavd@medexport-omsk.ru,https://api.hh.ru/employers/628523
670882,"Глобал Пак, группа компаний","Новосибирск, 2-я Обская улица, 73",54.999563,82.949984,Доровских Алена ,personal@glpak.ru,https://api.hh.ru/employers/670882
784897,"Волга Моторс, ТД","Новосибирск, Кировский район, Северный проезд",54.9508184324,82.9310553308,Арина Страчук,personal2@volga-motors.ru,https://api.hh.ru/employers/784897
1014495,АКТО,,,,Мария,hr@proskif.ru,https://api.hh.ru/employers/1014495
3337047,Новосибирский Научно-Технический Центр (ННТЦ),"Новосибирск, Советский район, микрорайон Академгородок, Инженерная улица, 20",54.854035,83.112202,Шлыкова Анна,hr@nntc.pro,https://api.hh.ru/employers/3337047
4383098,Мебеком,"Новосибирск, Кировский район, Северный проезд, 3/8",54.951296,82.892088,Лихманова Юлия,lihmanova@olmeko.ru,https://api.hh.ru/employers/4383098
76457,Новосибирский авиаремонтный завод,"Новосибирск, Аэропорт, 2/4",55.080174,82.908913,Касаткина Светлана Сергеевна,s.kasatkina@narp.ru,https://api.hh.ru/employers/76457
703877,КРАФТЕР,,,,,,https://api.hh.ru/employers/703877
4219,Tele2,,,,,,https://api.hh.ru/employers/4219
4154987,Винир Центр,"Новосибирск, Депутатская улица, 2",55.026773,82.906084,Лепихова Валерия,leralera03.99@gmail.com,https://api.hh.ru/employers/4154987
4526023,Перчунова Анна Николаевна,"Тула, улица Михеева, 17",54.173922,37.616243,Кондауров Олег,sm-news.ru@yandex.ru,https://api.hh.ru/employers/4526023
1623011,Центр Утилизации,"Новосибирск, Красный проспект, 39",55.034879,82.918534,Екатерина,kamicheva.ek@centrutilizacii.ru,https://api.hh.ru/employers/1623011
1692272,Салют,"Новосибирск, Нижегородская улица, 270к4",55.001034,82.974239,Наталья,,https://api.hh.ru/employers/1692272
4506177,Стелс,"Новосибирск, улица Романова, 39",55.035705,82.922136,Сергей,masterovsergey2020@gmail.com,https://api.hh.ru/employers/4506177
2525211,"Стопдолг, юридическая компания",,,,,,https://api.hh.ru/employers/2525211
3291,Группа Полипластик,"Новосибирск, улица Мира, 58",54.962473,82.926978,,,https://api.hh.ru/employers/3291
76894,Восточная Техника,,,,,,https://api.hh.ru/employers/76894
4343296,Система,,,,Департамент по персоналу,,https://api.hh.ru/employers/4343296
3654232,НЕФТЕГАЗПРОМСТРОЙ,,,,Быкова Инга,ngps-ok@mail.ru,https://api.hh.ru/employers/3654232
949674,Студия ЯЛ,"Новосибирск, улица 9 Ноября, 14",55.013338,82.940049,Максим Дель,dellmak@yalstudio.ru,https://api.hh.ru/employers/949674
2455765,Альфа,,,,Анна Сергеевна,personal@avionmf.ru,https://api.hh.ru/employers/2455765
172,1C-Рарус,"Новосибирск, улица Фрунзе, 88",55.037412,82.93474,,,https://api.hh.ru/employers/172
2168398,СК-Инвест,,,,Канайкина Татьяна,zhogova@sk-nsk.com,https://api.hh.ru/employers/2168398
3959053,Berileads (ИП Савостин Алексей Юрьевич),,,,,,https://api.hh.ru/employers/3959053
23540,"Мир специй, Производственно-торговый холдинг","Новосибирск, Станционная улица, 60/10",54.998039,82.82201,Горячева Виктория Борисовна,goryachevavb@sibagro.su,https://api.hh.ru/employers/23540
1988555,Компания Стройторг,"Новосибирск, улица Немировича-Данченко, 49",54.9719,82.874544,Суховеева Елена Марковна,elsuh67@mail.ru,https://api.hh.ru/employers/1988555
4083369,Лазерлаб Профи,"Москва, проспект Маршала Жукова, 76к2",55.781337,37.451267,,,https://api.hh.ru/employers/4083369
2931950,Группа Компаний Мечел,,,,,,https://api.hh.ru/employers/2931950
2638400,КПК Городское Сберегательное Отделение,"Новосибирск, улица Станиславского, 14",54.981526,82.871103,Лариса Дмитриевна  ,l.butakova@gso38.ru,https://api.hh.ru/employers/2638400
20839,ГК «Черноголовка»,,,,,,https://api.hh.ru/employers/20839
4558920,Татьяна Горелкина,,,,,,https://api.hh.ru/employers/4558920
39305,Газпром нефть,"Новосибирск, Октябрьская улица, 52",55.024688,82.92352,,,https://api.hh.ru/employers/39305
2381,Softline,,,,Костина Оксана,oxana.kostina@softline.com,https://api.hh.ru/employers/2381
3613391,Гастромаркет,,,,Васильева Анастасия,vasilieva_an@nskgk.ru,https://api.hh.ru/employers/3613391
2507171,Бизнес-Ассистанс,,,,Татьяна Вячеславовна,rakurs7779@mail.ru,https://api.hh.ru/employers/2507171
1852275,ЭПРиС,"Новосибирск, улица Шевченко, 31",55.023196,82.939941,Оксана Сергеевна,epris@eprisn.ru,https://api.hh.ru/employers/1852275
3814298,«АЛРОСА Бизнес-сервис»,,,,,,https://api.hh.ru/employers/3814298
1046599,Cosmos Hotel Group,село Урлу-Аспак,51.685635,86.210734,Пашаева Елена Ивановна,epashaeva@cosmosgroup.ru,https://api.hh.ru/employers/1046599
231166,Отраслевой центр разработок и внедрения информационных систем / ОЦРВ,,,,,,https://api.hh.ru/employers/231166
739458,Декоррум,"Новосибирск, Фабричная улица, 31",55.019429,82.912435,Федоров Дмитрий,job@deconsk.ru,https://api.hh.ru/employers/739458
3461815,Аурум Рекрутинг,"Новосибирск, Кировский район",54.956777,82.921139,,,https://api.hh.ru/employers/3461815
591752,Торговая площадь,"Новосибирск, Красный проспект, 220 корпус 14",,,Прокопович Евгения Валерьевна,hr.mirvkusa@mail.ru,https://api.hh.ru/employers/591752
2787330,ГазОйл,"Новосибирск, 2-я Станционная улица, 27",55.01149,82.816153,Павлецова Алёна ,a.pavlecova@sibgaz.ru,https://api.hh.ru/employers/2787330
61190,Сибэлектропривод,"Новосибирск, улица Петухова, 69к4",54.942035,82.906596,,,https://api.hh.ru/employers/61190
29858,Авангард. Профессиональная экипировка,,,,,,https://api.hh.ru/employers/29858
927130,Палладий,,,,,,https://api.hh.ru/employers/927130
4554928,Рюмкина,,,,,,https://api.hh.ru/employers/4554928
4114270,Мехмаш,,,,Базуев Сергей Владимирович,bazuev036s@mail.ru,https://api.hh.ru/employers/4114270
3459327,ФОРИС-ЭКСПО,"Новосибирск, улица Богдана Хмельницкого, 90/3",55.087429,82.976323,Максим Сергеевич,mms@rus-prof.ru,https://api.hh.ru/employers/3459327
4373978,Авто54Сибирь (ИП Равдугин Максим Викторович ),,,,Багно Михаил,avto54sibir@gmail.com,https://api.hh.ru/employers/4373978
2132260,СибКонтакт,"Новосибирск, улица Даргомыжского, 8Ак12",55.079664,82.931371,,,https://api.hh.ru/employers/2132260
2670163,Фастар,"Новосибирск, Большевистская улица, 14/1",55.002816,82.948125,Целищева Елена,personal@mazda-fastar.ru,https://api.hh.ru/employers/2670163
1276,ОКЕЙ – Федеральная розничная сеть,,,,Седова Зинаида,zinaida.sedova@okmarket.ru,https://api.hh.ru/employers/1276
3026717,Компания Инфинити (Школа интернет - маркетинга ProEnter),"Новосибирск, улица Чаплыгина, 47",55.025916,82.916423,Терентьева  Ирина,rabota@proenter.me,https://api.hh.ru/employers/3026717
2605703,Зарплата.ру,"Новосибирск, Депутатская улица, 46",55.028888,82.926484,Чувашевская Екатерина Александровна,e.chuvashevskaya@zarplata.ru,https://api.hh.ru/employers/2605703
2571191,Техническая экспертиза,"Новосибирск, Коммунистическая улица, 7",55.022887,82.912363,Макаренко Яна,info@t-expert.su,https://api.hh.ru/employers/2571191
53592,Татспиртпром,,,,Коноплева Мария Владимировна,mariya.konopleva@tatspirtprom.ru,https://api.hh.ru/employers/53592
703900,Птицефабрика Октябрьская,,,,Нандышева Ульяна Анатольевна,ok@oktpf.ru,https://api.hh.ru/employers/703900
3077841,НПО Стратегия,,,,Солуян Екатерина Николаевна,personal@strategy-nsk.ru,https://api.hh.ru/employers/3077841
1436430,MAXGEN PROMO,"Новосибирск, Трудовая улица, 3",55.032232,82.917618,,,https://api.hh.ru/employers/1436430
2432315,Государственное казенное учреждение Новосибирской области Центр занятости населения города Новосибирска (ГКУ НСО ЦЗН г.Новосибирска).,"Новосибирск, улица Богдана Хмельницкого, 7",55.06736,82.936905,,,https://api.hh.ru/employers/2432315
4553310,Симпанов Максим,,,,,,https://api.hh.ru/employers/4553310
3777249,НПК Специальная Металлургия-Новосибирск,"Новосибирск, улица Димитрова",55.028615,82.904664,Козьминых Софья,ofis_nsk@npksm.ru,https://api.hh.ru/employers/3777249
2455933,Служба доставки (Best-call),,,,Кристина,ekc@eml.ru,https://api.hh.ru/employers/2455933
2155573,ВилайнТв,"Новосибирск, улица Фрунзе, 88",55.037412,82.934641,,,https://api.hh.ru/employers/2155573
3197321,Кузница Кадров,,,,,,https://api.hh.ru/employers/3197321
2796466,Гарант Право,"Новосибирск, Красный проспект, 220к10",55.06851,82.913342,Пономарев Роман Владимирович,roman_ponomarev@ngs.ru,https://api.hh.ru/employers/2796466
2186622,Санкт-Петербургская автомобильная компания,,,,,,https://api.hh.ru/employers/2186622
75958,"Фарм-про, Производственная компания","поселок городского типа Краснообск, 25а",54.915994,82.994756,Полякова Александра Александровна,polyakova@farm-pro.ru,https://api.hh.ru/employers/75958
2712165,САХКОМ,"Новосибирск, улица Дмитрия Шамшурина, 1",55.028682,82.903748,Дмитрий Ко,ko@sakh.com,https://api.hh.ru/employers/2712165
4460935,СибЭТЛ,,,,,,https://api.hh.ru/employers/4460935
3944034,Новодел,"Новосибирск, улица Немировича-Данченко, 165",54.987875,82.912956,,,https://api.hh.ru/employers/3944034
13157,Алкогольная Сибирская группа,,,,,,https://api.hh.ru/employers/13157
117502,Диалог Информационные Технологии,"Санкт-Петербург, Большой Сампсониевский проспект, 68",59.9801995336,30.3347115899,,,https://api.hh.ru/employers/117502
3158168,Консолидатор,,,,,,https://api.hh.ru/employers/3158168
4467702,Гранд,"Новосибирск, Владимировская улица, 25",55.039347,82.886779,Яковлева Ольга,niomed2020@mail.ru,https://api.hh.ru/employers/4467702
2898459,ГазАртСтрой,,,,Александр,a.silakov@gazartstroy.ru,https://api.hh.ru/employers/2898459
2667788,ГБУЗ НСО Клинический родильный дом № 6,"Новосибирск, Вертковская улица, 5",54.974303,82.89304,Нина Юрьевна,krd6ok@mail.ru,https://api.hh.ru/employers/2667788
4434203,Golf Pad (ООО ОптиПлат),"Новосибирск, улица Николаева, 11",54.858025,83.110567,Максим,hr@golfpadgps.com,https://api.hh.ru/employers/4434203
1435226,ГУП Мосгортранс,,,,Соколова Екатерина Сергеевна,sokolova_es.vst@mosgortrans.ru,https://api.hh.ru/employers/1435226
2663008,СПКБ Энергия,"Новосибирск, Планировочная улица, 18/1",54.996397,82.883841,Жидкова Олеся,100@spkb-e.ru,https://api.hh.ru/employers/2663008
176941,Азиатско-Тихоокеанский Банк,,,,Буйлина Елена Владимировна,bulatkina_ev@atb.su,https://api.hh.ru/employers/176941
1465892,ЭнергоПерспектива,"Новосибирск, Большевистская улица, 131",54.999382,82.959893,Вашина Ирина,personal@energoperspectiva.ru,https://api.hh.ru/employers/1465892
1972104,ИНПЭС,"Новосибирск, Ленинская линия",55.029946,82.92051,Анна,person2job@yandex.ru,https://api.hh.ru/employers/1972104
1686512,ХаусЭйдж,,,,,,https://api.hh.ru/employers/1686512
3618347,СибИАЦ,"Новосибирск, Станционная улица, 4",54.997972,82.873538,,,https://api.hh.ru/employers/3618347
2882584,Скуратов Кофе Омск,,,,Вера Терентьева,rabota@skuratovcoffee.ru,https://api.hh.ru/employers/2882584
1358552,AVICONN,,,,,,https://api.hh.ru/employers/1358552
3323674,Днл Упаковка,"Новосибирск, улица 1905 года, 85/1",55.045692,82.908509, Екатерина,hr@dnl.email,https://api.hh.ru/employers/3323674
4057507,РСК,"Новосибирск, улица Семьи Шамшиных, 95А",55.050282,82.926448,Медведева Регина,hr@gc-rsc.ru,https://api.hh.ru/employers/4057507
983541,ДОЦ,"Новосибирск, улица Королева, 40к54",55.056826,82.962623,Сухов Константин Викторович,sk@zrk-sib.ru,https://api.hh.ru/employers/983541
3765416,Peller.Tech Inc,,,,,,https://api.hh.ru/employers/3765416
4527596,Юртаева Ирина Михайловна,,,,,,https://api.hh.ru/employers/4527596
3988926,Чек Инсайт,,,,,,https://api.hh.ru/employers/3988926
745358,ITM,,,,Анна,anna.orlyuk@itm-gms.ru,https://api.hh.ru/employers/745358
1925466,Первая металлобаза,"Новосибирск, 2-я Станционная улица, 30",55.010762,82.814437,Кучеренко Василий,kucherenko.met@ngs.ru,https://api.hh.ru/employers/1925466
765593,Представительство компании ИПКА Лабораториз Лимитед (Индия),,,,,,https://api.hh.ru/employers/765593
4134957,НСК-Проект,"Новосибирск, Дзержинская линия, метро Маршала Покрышкина",55.043768,82.935539,Андрей Владимирович,tdode@mail.ru,https://api.hh.ru/employers/4134957
953,КБ «Уральский банк реконструкции и развития» (УБРиР),,,,,,https://api.hh.ru/employers/953
1961953,Твой стиль,,,,,,https://api.hh.ru/employers/1961953
1420299,A2,,,,,,https://api.hh.ru/employers/1420299
99456,Банк Акцепт,,,,,,https://api.hh.ru/employers/99456
1032337,Helly Hansen,"Новосибирск, улица Гоголя, 13",55.043721,82.922334,Тасенко Елена,,https://api.hh.ru/employers/1032337
1306772,Спортстайл,"Новосибирск, улица Фрунзе, 142/1",55.038109,82.940812,Надежда,info@sportstyle-shop.com,https://api.hh.ru/employers/1306772
57996,Байкал-Сервис,,,,Новиков Сергей Сергеевич,novikov.s@baikalsr.ru,https://api.hh.ru/employers/57996
44611,НИАРМЕДИК,,,,,,https://api.hh.ru/employers/44611
4486590,Мюнхенский дворик,"Новосибирск, Советская улица, 52",55.043861,82.912956,Турманкина Виктория,vikaturmankina@gmail.com,https://api.hh.ru/employers/4486590
2992857,ЯВитрина,,,,,,https://api.hh.ru/employers/2992857
962612,Мир Хобби,,,,,,https://api.hh.ru/employers/962612
55590,Берлин-Хеми/А. Менарини,,,,,,https://api.hh.ru/employers/55590
4559150,Лодчиков,,,,,,https://api.hh.ru/employers/4559150
2827948,Альянс,"Новосибирск, Октябрьский район",55.010519,83.010423,Зубкова Мария,mariya.zubkova584@gmail.com,https://api.hh.ru/employers/2827948
1515355,Домокон,,,,,,https://api.hh.ru/employers/1515355
2607426,ДжейКей Глобал Ко. Лтд,"Новосибирск, Светлановская улица, 50",55.081725,82.932871,,,https://api.hh.ru/employers/2607426
3620849,Слесаренко Никита Сергеевич,"Новосибирск, улица Кирова, 82",55.015155,82.947163,,,https://api.hh.ru/employers/3620849
76763,ЕВРОСЕРВИС,,,,,,https://api.hh.ru/employers/76763
907321,Мастерская Магазинов,"Новосибирск, улица Блюхера",54.989512,82.899723,Морозова Яна Анатольевна,jana150479@yandex.ru,https://api.hh.ru/employers/907321
1416072,Суши Маkе,,,,,,https://api.hh.ru/employers/1416072
8550,Центр финансовых технологий,,,,,,https://api.hh.ru/employers/8550
631843,РусЭнергоМир,"Новосибирск, Новогодняя улица, 24/1",54.984047,82.907332,,,https://api.hh.ru/employers/631843
3712687,ЦСМ Клиника Больничная,"Новосибирск, улица Петухова, 16/1",54.939838,82.893274,Татьяна Анатольевна,chta@0370.ru,https://api.hh.ru/employers/3712687
4351433,Приемник для лиц арестованых в административном порядке,"Новосибирск, улица Писарева, 64/1",55.049452,82.933491,Линник Евгений,evg.linnik2017@yandex.ru,https://api.hh.ru/employers/4351433
4187842,Торговая марка Дарина,"Новосибирск, Холодильная улица, 21",55.051458,82.883033,,,https://api.hh.ru/employers/4187842
73149,"Магистр, Группа компаний",,,,Сафина Диана,avtor@magistr.ru,https://api.hh.ru/employers/73149
2700399,DESIGN CUBE,"Новосибирск, улица Кропоткина, 273",55.059013,82.93606,Лучкина Оксана,designrabota@mail.ru,https://api.hh.ru/employers/2700399
2178845,Биотехнос,"Москва, проспект Андропова, 18к6",55.692861,37.66221,,,https://api.hh.ru/employers/2178845
39915,Южная Соковая Компания,,,,,,https://api.hh.ru/employers/39915
3631422,СмоленскГазЭнергоМонтаж,,,, Матвиенко Мария,molk@algofin.ru,https://api.hh.ru/employers/3631422
1004443,Новосибирскэнергосбыт,,,,Грек Елена,grek@nskes.ru,https://api.hh.ru/employers/1004443
3115667,МУП Новосибирский зоопарк имени Р.А. Шило,,,,,,https://api.hh.ru/employers/3115667
345,Единая Европа - Холдинг,,,,Алыкина Ирина,alikina@list.ru,https://api.hh.ru/employers/345
2714278,БЛС Интернешнл Сервисес,"Новосибирск, улица Ленина, 52",55.033543,82.902041,,,https://api.hh.ru/employers/2714278
2281922,Текстилия,,,,Алена Коростелева,textiliya.hr@gmail.com,https://api.hh.ru/employers/2281922
4177891,Магистраль,,,,Дмитрий ,elena89139152311@yandex.ru,https://api.hh.ru/employers/4177891
557106,Ависта Модуль Инжиниринг,,,,Пименова Юлия Леонидовна,hr1@a-modul.ru,https://api.hh.ru/employers/557106
3898538,Храповицкий Алексей Николаевич,"Новосибирск, Коммунистическая улица, 27/29",55.023341,82.917357,Храповицкий Алексей,nskarbitr@gmail.com,https://api.hh.ru/employers/3898538
3196300,Академия Красоты,"Новосибирск, улица Николая Островского, 120",55.051355,82.938917,Валентина Ильинична,luninaanna@ngs.ru,https://api.hh.ru/employers/3196300
19623,Simple,,,,,,https://api.hh.ru/employers/19623
51296,MARMALATO,,,,,,https://api.hh.ru/employers/51296
549399,"Обновление, ПФК","Новосибирск, Станционная улица, 80",54.997998,82.790812,,,https://api.hh.ru/employers/549399
105688,Белая Дача Салаты,"Новосибирск, Советское шоссе, 19",54.8713,82.983985,Вячеслав,vborgert@bdsalads.ru,https://api.hh.ru/employers/105688
198,Сен-Гобен СНГ,,,,,,https://api.hh.ru/employers/198
4498604,Высокие Технологии Печати,"Новосибирск, улица Николая Островского, 37",55.050215,82.922837,Семухина Екатерина,semuhina@vtprint.pro,https://api.hh.ru/employers/4498604
1225079,ГБУЗ НСО Городская больница №3,"Новосибирск, улица Мухачева, 5к4",54.848774,82.969936,Грабенко Надежда Алексеевна,gb3_kadr@mail.ru,https://api.hh.ru/employers/1225079
3506552,ГБУЗ Сегежская ЦРБ,,,,Татьяна Ремнева,kadry-ccrb@yandex.ru,https://api.hh.ru/employers/3506552
1316792,"Городская Клиническая больница 12, ГБУЗ НСО","Новосибирск, Трикотажная улица, 49/1",55.067185,82.962552,Анна Викторовна,mkb12nsk@mail.ru,https://api.hh.ru/employers/1316792
1548488,ГБУЗ НСО Городская клиническая больница №11,"Новосибирск, улица Танкистов, 23",54.982667,82.825163,,,https://api.hh.ru/employers/1548488
2831913,Дальневосточный проектный институт Востокпроектверфь,"Владивосток, Светланская улица, 72",43.115371,131.904861,Андрийчук Анастасия Анатольевна,personal@vpv.su,https://api.hh.ru/employers/2831913
1776857,Sputnik,"Москва, Рубцовская набережная, 3с1",55.776613,37.699975,,,https://api.hh.ru/employers/1776857
188868,uKit Group,,,,,,https://api.hh.ru/employers/188868
4133295,Advert School,,,,,,https://api.hh.ru/employers/4133295
214302,PERI,,,,,,https://api.hh.ru/employers/214302
1503864,СЭИК,,,,Анжелика Андреевна,info@sibeik.ru,https://api.hh.ru/employers/1503864
4354882,Хинкалидзе,"Новосибирск, Красный проспект, 28",55.025328,82.922208,Килев Дмитрий Сергеевич,hello@khinkalidze.ru,https://api.hh.ru/employers/4354882
624383,Альвента,"Новосибирск, Депутатская улица, 46",55.028888,82.926484,Наталья,bns@alventa.ru,https://api.hh.ru/employers/624383
219286,Фармаимпекс,,,,Люкшенко Анастасия Викторовна,a.lyukshenko@farmaimpex.ru,https://api.hh.ru/employers/219286
8121,Р-Фарм / R-Pharm Group,,,,,,https://api.hh.ru/employers/8121
2277240,ГлавТехСнаб,,,,Татьяна ,5772822@mail.ru,https://api.hh.ru/employers/2277240
142178,Коттон Вэй,новосибирск Бурлинский переезд № 1,,,Тайбахтина Елена Николаевна,taybahtina.e@cotton-way.ru,https://api.hh.ru/employers/142178
1074019,ВостСибТранс,"Новосибирск, улица Восход, 20",55.012548,82.942106,Карамышева Светлана Александровна,hr2@vstrans.ru,https://api.hh.ru/employers/1074019
2450020,CITOMED,"Новосибирск, Красный проспект, 1",55.020187,82.92246,,,https://api.hh.ru/employers/2450020
1084143,ГБУЗ НСО ДГКБ № 3,"Новосибирск, Охотская улица, 81",55.123821,82.891486,Отдел кадров,personal_dgkb3@mail.ru,https://api.hh.ru/employers/1084143
3025396,Медиа-холдинг ТОП МЕДИА,"Новосибирск, Красный проспект, 82",55.046883,82.916711,,,https://api.hh.ru/employers/3025396
4023,Райффайзенбанк,"Новосибирск, улица Дуси Ковальчук, 258/1",55.057079,82.909147,,,https://api.hh.ru/employers/4023
2324366,Дом Кедра,"Новосибирск, улица Дуси Ковальчук, 274",55.058172,82.915749,Владислав Александрович,dom-kedra@ngs.ru,https://api.hh.ru/employers/2324366
2081323,МФК ГРИНМАНИ,"Новосибирск, улица Фрунзе, 88",55.0375,82.934668,Мария Амельчева,amelcheva@greenmoney.ru,https://api.hh.ru/employers/2081323
588180,Энерготехсервис,,,,,,https://api.hh.ru/employers/588180
2716111,РПК БиТиЭль,,,,,,https://api.hh.ru/employers/2716111
1137114,БАУ МИКС,"Новосибирск, Октябрьская магистраль, 3",55.026494,82.923753,"Менеджер по персоналу, Елена ",berillo.el@yandex.ru,https://api.hh.ru/employers/1137114
3188340,Промпродукт,"Новосибирск, Выборная улица",55.002366,83.018472,Евгений,,https://api.hh.ru/employers/3188340
2694523,Экспресс,,,,,,https://api.hh.ru/employers/2694523
3071889,Кудряшовское,"село Криводановка, Садовый переулок, 2",55.086899,82.648698,Острецова Лариса Валерьевна,person@kydr.ru,https://api.hh.ru/employers/3071889
42474,"Elis, Группа компаний","Новосибирск, Красный проспект, 101",55.055733,82.911905,"Алена Васильевна, директор магазина",,https://api.hh.ru/employers/42474
726130,"kruchenas.net, рекламное агентство","Новосибирск, улица Орджоникидзе, 40",55.031634,82.935988,,,https://api.hh.ru/employers/726130
2186085,Гефест Инжиниринг,,,,Балтачев Дмитрий,dimax_sib@inbox.ru,https://api.hh.ru/employers/2186085
3381015,Хан Буз,"Новосибирск, проспект Карла Маркса, 53",54.991888,82.909129,Евгения,hrkhanbuz@gmail.com,https://api.hh.ru/employers/3381015
1947330,ANCOR FinTech,,,,,,https://api.hh.ru/employers/1947330
4235850,Pretty Woman,"Новосибирск, Красный проспект, 17",55.026592,82.920744,Александра,bvlgari-aqva@rambler.ru,https://api.hh.ru/employers/4235850
905576,ЭкономСвет,"Новосибирск, улица Декабристов, 247",55.002521,82.970097,,,https://api.hh.ru/employers/905576
1318576,СибирьСвет,"Новосибирск, улица Кропоткина, 271",55.057786,82.936608, HR-менеджер Ника,hr@sibirsvet.pro,https://api.hh.ru/employers/1318576
2060320,Новосибирский театр оперы и балета,,,,,,https://api.hh.ru/employers/2060320
723503,GlobalTruckDelivery,"Новосибирск, Кировский район, Северный проезд, 43/1",54.948111,82.931712,Уфимцева Наталья Алекеевна,ufimceva.natalja@gtdel.net,https://api.hh.ru/employers/723503
538574,"Приз, фабрика одежды","Новосибирск, улица Ватутина, 99",54.967269,82.933976,Смирнова Елена,hr@prizmoda.ru,https://api.hh.ru/employers/538574
7371,Pony Express,,,,,,https://api.hh.ru/employers/7371
833155,Finbridge,,,,Скубина Светлана,,https://api.hh.ru/employers/833155
3168507,Владивостокская Стивидорная Компания,,,,Хальзова Маргарита Александровна,sea3@pioneerlogistic.ru,https://api.hh.ru/employers/3168507
3685769,УК МАСТЕР-ДОМ,"Новосибирск, улица Галущака, 2А",55.051489,82.902014,Ковалева Анна Владимировна,a.kovaleva@aktor.su,https://api.hh.ru/employers/3685769
2336230,CК Райдекс,"Новосибирск, Большая улица",55.011913,82.852742,Березина Юлия Владимировна,hr@raidex.ru,https://api.hh.ru/employers/2336230
2823388,Центр семейной медицины Алмита,,,,Наталья Ивановна,oooalmita@mail.ru,https://api.hh.ru/employers/2823388
552978,Брянконфи,,,,,,https://api.hh.ru/employers/552978
3503993,НЕФТЕСИБ,,,,Семенова Ксения,sk@sibneft-n.ru,https://api.hh.ru/employers/3503993
1834386,АГРОФЛОРА,"Новосибирск, Октябрьская магистраль, 4",55.022536,82.930024,Кристина,hr@la-rose.ru,https://api.hh.ru/employers/1834386
691427,Олимпия-Райзен-Сибирь,"Новосибирск, улица Кирова, 86",55.013998,82.949634,Бирюкова Татьяна,info@orsib.ru,https://api.hh.ru/employers/691427
4551527,Компания по уборке снега с крыш,"Новосибирск, Кировский район, Затулинский жилмассив, улица Зорге",54.935948,82.913504,Дмитрий,,https://api.hh.ru/employers/4551527
1151563,Добрыня-Русь,,,,,,https://api.hh.ru/employers/1151563
1067459,Кемеровское Акционерное Общество Азот,,,,,,https://api.hh.ru/employers/1067459
4390350,WIT Recruitment,,,,,,https://api.hh.ru/employers/4390350
2847004,Модный Ремонт,"Новосибирск, площадь Калинина",55.05942,82.91248,Чезганов Максим,max81@ngs.ru,https://api.hh.ru/employers/2847004
2821009,Учебный Центр АТОН,"Новосибирск, проспект Димитрова, 7",55.034771,82.91168,Гельд Евгений Робертович,info@uc54aton.ru,https://api.hh.ru/employers/2821009
706711,TOM TAILOR,"Новосибирск, улица Ватутина, 107",54.964463,82.93703,,,https://api.hh.ru/employers/706711
4207734,Концертное Агентство Артистика,,,,,,https://api.hh.ru/employers/4207734
364,Алкогольный холдинг «Руст»,,,,,,https://api.hh.ru/employers/364
2752665,Бусзапчасть,"Кемерово, улица Радищева, 2/2",55.323597,86.098714,Алена Сергеевна ,alena.savinkowa@yandex.ru,https://api.hh.ru/employers/2752665
4302537,Демина Анна Сергеевна,"Новосибирск, улица Фрунзе, 86",55.037381,82.933509,Карина,lawyer1888@mail.ru,https://api.hh.ru/employers/4302537
4434314,"ЛДЦ МИБС, ОП Новосибирск","Новосибирск, улица Бориса Богаткова, 109",55.023062,82.957117,,,https://api.hh.ru/employers/4434314
2717114,Камеа,"Новосибирск, улица Сибиряков-Гвардейцев, 49Ак5",54.950697,82.933293,Наталья,otdel.kadrov@kamea.ru,https://api.hh.ru/employers/2717114
825986,Антикоррозионные технологии и Сервис,"Новосибирск, Нижегородская улица, 270/1",55.001024,82.975128,Близневский Антон,hr@anticorsib.ru,https://api.hh.ru/employers/825986
4567257,Дмитрий Шаритонов,,,,,,https://api.hh.ru/employers/4567257
993723,ВЭД Агент,"Новосибирск, площадь им. Карла Маркса, 7",,,Киселева Елена,kiseleva@vedagent.ru,https://api.hh.ru/employers/993723
1098828,Ай Ти Констракт,"Новосибирск, улица Немировича-Данченко, 138",54.987942,82.915776,,,https://api.hh.ru/employers/1098828
4522486,Березин Алексей Анатольевич,,,,,,https://api.hh.ru/employers/4522486
235868,Шаклин,"Новосибирск, улица Демакова, 30",54.86016,83.115418,,,https://api.hh.ru/employers/235868
2783474,Иван Неустроев,"Новосибирск, Ленинская линия, метро Заельцовская",55.05941,82.912488,,,https://api.hh.ru/employers/2783474
2077367,PrimeTime,,,,,,https://api.hh.ru/employers/2077367
1053646,makk автомагазин сервис,,,,Кычанова Наталья,personal_makk@akb22.ru,https://api.hh.ru/employers/1053646
3516599,Промстроймонтаж,"Новосибирск, Холодильная улица, 17",55.050499,82.884245,Артур,psm154@yandex.ru,https://api.hh.ru/employers/3516599
712134,Промэко,"Новосибирск, Авиастроителей улица, 39б",55.07787,82.984408,Мамеева Ольга,office@promeco.ru,https://api.hh.ru/employers/712134
49588,Резиновая подкова,,,,,,https://api.hh.ru/employers/49588
4425717,Хамелеоннейл,"рабочий посёлок Кольцово, микрорайон АБК, 5",54.950464,83.206372,,,https://api.hh.ru/employers/4425717
4524782,Компания Тримедфарм,"Новосибирск, Тайгинская улица, 15",55.109229,82.988199,Светлана Егоровна,trimedfarm@mail.ru,https://api.hh.ru/employers/4524782
3047939,Промтехлит,"Новосибирск, Советский район, микрорайон Шлюз, Плотинная улица, 7/10",54.857263,83.02741,Татьяна,ver.verby@yandex.ru,https://api.hh.ru/employers/3047939
2516466,Котмарт,,,,Семенова Лина,hr2@catmart.ru,https://api.hh.ru/employers/2516466
1395441,Альфа Пласт,"Новосибирск, улица Петухова, 16/1",54.939812,82.893238,Елена,alfa_serv@mail.ru,https://api.hh.ru/employers/1395441
3260917,Дверной альянс,"Новосибирск, улица Петухова, 35",54.94504,82.857197, Ольга Владимировна,,https://api.hh.ru/employers/3260917
2994824,Корвет,ДНП Марусино,55.030664,82.718884,Марина,1@flagman-gr.com,https://api.hh.ru/employers/2994824
1938458,Эксел,"Новосибирск, Красный проспект, 55",55.039347,82.917259,Зайцева Елизавета Аркадьевна,elizavetazaytseva932@gmail.com,https://api.hh.ru/employers/1938458
1183811,BORK,,,,Терновая Валентина Валерьевна,,https://api.hh.ru/employers/1183811
2804514,МБОУ СОШ № 175,"Новосибирск, улица Титова, 43/2",54.979552,82.862219,Щукина Наталья,natalia_vesna@inbox.ru,https://api.hh.ru/employers/2804514
1035258,Трансервис,"Новосибирск, улица Победы, 55",55.067829,82.879008,Валиева Анна Валерьевна,recruiter@transervis.ru,https://api.hh.ru/employers/1035258
3595987,ГАУ НСО ССО Новосибирский дом ветеранов,"Новосибирск, улица Жуковского, 98",55.064133,82.891854,Седова Марина Витальевна,ndv_@mail.ru,https://api.hh.ru/employers/3595987
1784379,ГБУЗ НСО НКЦРБ,поселок городского типа Краснообск,54.919963,82.990992,Гущина Ирина,gushina@ncrb.ru,https://api.hh.ru/employers/1784379
45688,Syneos Health,,,,,,https://api.hh.ru/employers/45688
2083938,АНО ДПО УЦ «ПромСтройГаз»,"Новосибирск, улица Некрасова, 54",55.045779,82.930212,Осипова Алина,a.osipova@promstroygaz.pro,https://api.hh.ru/employers/2083938
1577121,Торговый дом БФ,,,,,,https://api.hh.ru/employers/1577121
1753287,Партнеры Красноярск,,,,Вакарина Ольга Геннадьевна,vakarina.og@p-krsk.ru,https://api.hh.ru/employers/1753287
172161,Респект,"Новосибирск, Военная улица, 5",55.028749,82.936698,Киселева Наталья Васильевна,respect-aura@mail.ru,https://api.hh.ru/employers/172161
32569,Русклимат,"Новосибирск, Электрозаводская улица, 4",55.05976,82.96848,Елена Сидоренко,sidorenko_e@rusklimat.ru,https://api.hh.ru/employers/32569
2532203,Кировский отдел вневедомственной охраны по городу Новосибирску - филиал ФГКУ УВО ВНГ России по Новосибирской области,"Новосибирск, улица Палласа, 1/2",54.945278,82.879395,Кирилл Владимирович,2326780@bk.ru,https://api.hh.ru/employers/2532203
807156,СПЕЦГАЗМОНТАЖ,,,,,,https://api.hh.ru/employers/807156
171487,ТИС Лоджистик,,,,,,https://api.hh.ru/employers/171487
33614,ПЕНОПЛЭКС,"Новосибирск, Выборная улица, 201",55.007912,83.058887,Андрей Андреевич,e.gruzdeva@penoplex.ru,https://api.hh.ru/employers/33614
2655886,Партнерская Среда,,,,,,https://api.hh.ru/employers/2655886
2181872,БирТрейд,,,,,,https://api.hh.ru/employers/2181872
4147252,Максимова Виктория Владимировна,,,,Фомина Екатерина,hr_fominae@mail.ru,https://api.hh.ru/employers/4147252
3468186,Энергопром-МК,"Новосибирск, Бетонная улица, 16А",54.960752,82.919621,Иван Юрьевич,energoprom-mk@mail.ru,https://api.hh.ru/employers/3468186
2473580,СИБМЕДИА,"Новосибирск, улица Орджоникидзе, 47",55.032619,82.93571,Кузнецов Артем,systemllc@gmail.com,https://api.hh.ru/employers/2473580
3706864,Аристократ,,,,,,https://api.hh.ru/employers/3706864
3073618,ЖЭК Левобережная,"Новосибирск, улица Пархоменко, 27",54.986005,82.840893,Воронова Ирина,vij@uklevo.ru,https://api.hh.ru/employers/3073618
2584731,ДЕДЛАЙН,,,,Евгений,,https://api.hh.ru/employers/2584731
2582184,Friending Group,,,,,,https://api.hh.ru/employers/2582184
4218582,Чучвара,"Новосибирск, Вокзальная магистраль, 16",55.031365,82.914186,Петенева Анастасия,dp@chuchvara-vk.ru,https://api.hh.ru/employers/4218582
101317,ВиЭф Сервисес,"Новосибирск, улица Челюскинцев, 15",55.04027,82.906488,,,https://api.hh.ru/employers/101317
4238383,Горбунова Елена Сергеевна,,,,,,https://api.hh.ru/employers/4238383
2440803,СЛ Систем,"Новосибирск, Ленинский район, микрорайон Горский, 64",54.993293,82.894046,Злотин Алексей,av@slsib.ru,https://api.hh.ru/employers/2440803
7350,Русбизнесавто,,,,,,https://api.hh.ru/employers/7350
2284658,Торговая Сеть ТехноНИКОЛЬ,,,,,,https://api.hh.ru/employers/2284658
3093544,KFC (Интернэшнл Ресторант Брэндс),,,,Пепплер Юлия,peppler.yulya@bk.ru,https://api.hh.ru/employers/3093544
2314605,MIXIT,,,,Соколова Елизавета ,novosibirsk@mixit.ru,https://api.hh.ru/employers/2314605
2775027,СиТех,"Новосибирск, улица Ватутина, 107",54.9632898476,82.9397811773,Александр,goncharov0101@mail.ru,https://api.hh.ru/employers/2775027
600589,NEW YORKER,,,,,,https://api.hh.ru/employers/600589
6015,Данфосс,,,,,,https://api.hh.ru/employers/6015
2418436,Частный рекрутер Крючкова Ольга Владимировна,,,,,,https://api.hh.ru/employers/2418436
3177,Первый Бит,"Новосибирск, улица Добролюбова, 2А",55.002511,82.942582,Бусыгина Ольга,oabusygina@1cbit.ru,https://api.hh.ru/employers/3177
4306,"AROUND, Группа компаний",,,,,,https://api.hh.ru/employers/4306
4383897,Автосфера,"Новосибирск, Красный проспект, 153А",55.055759,82.908769,Ольга Новикова,avtosfera.nsk@yandex.ru,https://api.hh.ru/employers/4383897
2561,Апрайт-рекрутинг,,,,,,https://api.hh.ru/employers/2561
3568912,Расцветай,"Новосибирск, улица Фрунзе, 228",55.039213,82.954045,Щеголева Ирина Александровна,hr@2558822.ru,https://api.hh.ru/employers/3568912
2816982,Фаворит,"Новосибирск, улица Петухова, 51А",54.946752,82.873816,Екатерина Костина,personal@3davto.ru,https://api.hh.ru/employers/2816982
641905,"Город Мастеров,ООО","Новосибирск, Бетонная улица, 8",54.961449,82.914779,,,https://api.hh.ru/employers/641905
1028409,ГК Вагонсервис,"Новосибирск, Депутатская улица, 46",55.028888,82.926484,Камкина Алёна,office@vsgc.ru,https://api.hh.ru/employers/1028409
3117247,Лидер,,,,,,https://api.hh.ru/employers/3117247
1496276,Управляющая компания Дзержинец,"Новосибирск, проспект Дзержинского, 26а",55.053665,82.973664,,,https://api.hh.ru/employers/1496276
2465443,НИИМонтаж,,,,Штоколов Сергей Александрович,buh_niimontag@mail.ru,https://api.hh.ru/employers/2465443
4527160,Шашерина Вера Викторовна,"Новосибирск, улица Есенина, 8/4",55.053026,82.995619,Вера Викторовна,hello@verashasherina.ru,https://api.hh.ru/employers/4527160
201,KPMG,,,,,,https://api.hh.ru/employers/201
3243329,Системы информационной безопасности,"Новосибирск, улица Бориса Богаткова, 63",55.017818,82.951673,,,https://api.hh.ru/employers/3243329
65368,Авантаж,,,,Виктория Башаева,711099@bk.ru,https://api.hh.ru/employers/65368
1581310,РКБ,"Новосибирск, Большевистская улица, 101",55.005015,82.945555,Скрыпников Кирилл Владимирович,personal@rkb.ru,https://api.hh.ru/employers/1581310
71025,Маркер Игрушка,,,,,,https://api.hh.ru/employers/71025
1038655,КАМТЕНТ,"Новосибирск, Станционная улица, 60/9",54.99806,82.821238,Подбор персонала,personal226@bk.ru,https://api.hh.ru/employers/1038655
1180,Bayer,,,,,,https://api.hh.ru/employers/1180
54732,НАГ,"Новосибирск, улица Гоголя, 51",55.044743,82.94287,Кузнецов Максим,m.kuznecov@nag.ru,https://api.hh.ru/employers/54732
3855571,ИТС Логистика и Сервис,"Новосибирск, Толмачёвское шоссе, 27",54.963595,82.81768,Половцева Ева Владимировна,e.polovtseva@its-ls.ru,https://api.hh.ru/employers/3855571
1791,Хлебпром,"Новосибирск, улица Немировича-Данченко, 104",54.972034,82.89481,,,https://api.hh.ru/employers/1791
56119,Noveo,,,,,,https://api.hh.ru/employers/56119
1294054,Gipfel International,,,,,,https://api.hh.ru/employers/1294054
4543504,Элементарные программные решения,"Новосибирск, улица Фрунзе, 5",55.036644,82.916684,Севастьянов Александр,al.sev@elementpay.io,https://api.hh.ru/employers/4543504
97613,СпецТехноТара,,,,,,https://api.hh.ru/employers/97613
1711754,МСВ,"Новосибирск, проспект Карла Маркса, 7",54.985059,82.897046,Гудовских Дмитрий Геннадьевич,d.gudovskih@ooomsv.ru,https://api.hh.ru/employers/1711754
46919,Группа компаний F1,"Новосибирск, улица Твардовского, 3к10",54.929156,83.132863,Шалунова Виолетта Вадимовна,personal@cf1.ru,https://api.hh.ru/employers/46919
1460705,Вега-Абсолют,"Новосибирск, улица Кирова, 113/1",,,,,https://api.hh.ru/employers/1460705
4020062,Автосити-Нск,"Новосибирск, Волочаевская улица, 49",55.052845,83.000694,Пискарева Светлана,autocity.rabota@yandex.ru,https://api.hh.ru/employers/4020062
4136664,Экстримкидс Нск,"Новосибирск, Вокзальная магистраль, 8Б",55.033037,82.906802,,,https://api.hh.ru/employers/4136664
4052755,Персона Лаб,,,,Костьянова Алиса,,https://api.hh.ru/employers/4052755
2739232,Вармекс,"Новосибирск, улица Сибиряков-Гвардейцев, 49А",54.950324,82.935342,,,https://api.hh.ru/employers/2739232
1661927,Рего дизайн,,,,Ольга,9794330@mail.ru,https://api.hh.ru/employers/1661927
3914173,FINEPROMO (ООО Грин Форест),"Новосибирск, улица Николаева, 12",54.857844,83.111798,,,https://api.hh.ru/employers/3914173
4564120,BW,,,,Б Андрей,bw0606@yandex.ru,https://api.hh.ru/employers/4564120
114354,Быстроном,,,,Алла,bragina.a@bynom.com,https://api.hh.ru/employers/114354
3859650,Институт катализа им. Г.К. Борескова СО РАН,"Новосибирск, Советский район, микрорайон Академгородок, проспект Академика Лаврентьева, 5",54.853485,83.104476,,,https://api.hh.ru/employers/3859650
4217721,ЧОП Пультовая охрана Подразделение Д,"Новосибирск, Планетная улица, 30к2А",55.048358,82.956901,Дмитрий,bda@pult.su,https://api.hh.ru/employers/4217721
3732298,ЦМТ,"Новосибирск, Гусинобродское шоссе, 20",55.035503,83.00294,Елена,zhukova@cmt54.ru,https://api.hh.ru/employers/3732298
2800125,Бренд-фарм,,,,Татьяна Николаевна,tnrmart@mail.ru,https://api.hh.ru/employers/2800125
678,RALF RINGER,"Новосибирск, улица Гоголя, 13",55.043721,82.922334,Кашина Елена,kashina_ea@ralf.ru,https://api.hh.ru/employers/678
2638215,Анадо,"Новосибирск, Красный проспект, 220/5",55.067721,82.913441,Андрей Анатольевич,anado@anado.ru,https://api.hh.ru/employers/2638215
1547904,Digital-агентство AiR,"Новосибирск, улица Орджоникидзе, 38",55.032144,82.935881,Савенков Денис,savenkov@airws.ru,https://api.hh.ru/employers/1547904
185755,Группа страховых компаний «Югория»,,,,,,https://api.hh.ru/employers/185755
2732806,МКК Заправляем Деньгами,"Новосибирск, улица Мичурина, 10/1",55.040977,82.922127,Евгений,ew.chumak@yandex.ru,https://api.hh.ru/employers/2732806
1390390,Центр лабораторной диагностики,,,,Евгения Сергеевна,office@centerld.ru,https://api.hh.ru/employers/1390390
2120460,AdMe,,,,,,https://api.hh.ru/employers/2120460
3546796,Pixel,"Новосибирск, проспект Димитрова, 4/1",55.02957,82.908365,,,https://api.hh.ru/employers/3546796
2178287,Скайтек,"Новосибирск, Советский район, микрорайон Академгородок, улица Лыкова, 11/1",54.861487,83.086079,Козлова Ксения,job@skytecgames.ru,https://api.hh.ru/employers/2178287
839295,Школа стюардесс Sky-jet,"Новосибирск, проспект Карла Маркса, 57",54.992399,82.911204,Чернухина Людмила,luxair-job@mail.ru,https://api.hh.ru/employers/839295
5694,Комус,"Новосибирск, Станционная улица, 60/1к5",55.00217,82.812039,Вегнер Алина Сергеевна ,vas@region.komus.net,https://api.hh.ru/employers/5694
52296,Алютех,"с. Марусино, Промышленная зона №17",,,Мыльникова Оксана Николаевна,mylnikova@alutech-sibir.ru,https://api.hh.ru/employers/52296
1182529,Челленджер,"Новосибирск, улица Фрунзе, 242",55.039925,82.96248,,,https://api.hh.ru/employers/1182529
13247,"Хитэк, ГК","Новосибирск, улица Бориса Богаткова, 253/2",55.042844,82.983653,,,https://api.hh.ru/employers/13247
1173357,Биоквант,"Новосибирск, 1-й переулок Пархоменко, 14",54.989011,82.87528,Андрей,andrey.kovshik@vedapulse.com,https://api.hh.ru/employers/1173357
80190,Технологика,"Новосибирск, улица Кутателадзе, 4г",54.857958,83.105671,Крыжановская Виктория,vkryzhanovskaia@themsteam.com,https://api.hh.ru/employers/80190
2354526,ОптималГрупп,,,,Басманов Михаил,career@optimalgroup.ru,https://api.hh.ru/employers/2354526
4440469,Рони,,,,,,https://api.hh.ru/employers/4440469
2612067,МЦ Семейный доктор,,,,Фирсова Юлия,s.doctor.nsk@mail.ru,https://api.hh.ru/employers/2612067
591938,ГК Эксперт,"Новосибирск, ул. Якушева, 41",55.0106289774,82.9425937682,Соболева Марина,msoboleva@mrtexpert.ru,https://api.hh.ru/employers/591938
588351,АКТИВ-менеджер,,,,,,https://api.hh.ru/employers/588351
4483236,Партнерское управление,"Новосибирск, Октябрьская магистраль, 3",55.026731,82.923906,Партнёрское Управление,,https://api.hh.ru/employers/4483236
2619655,Максимус,"Новосибирск, Советский район, микрорайон Академгородок, проспект Академика Коптюга, 4",54.846462,83.10427,Ковалькова Анна,hr@mxnsk.ru,https://api.hh.ru/employers/2619655
2512288,Зодчий,"Новосибирск, улица Кирова, 29",55.016523,82.948358,,,https://api.hh.ru/employers/2512288
4032769,Смартфлот,,,,,,https://api.hh.ru/employers/4032769
1512141,ГК ОхотАктив,"Новосибирск, Фабричная улица, 17к2",55.015981,82.918876,Александр,1shelestova.vasilisa@gmail.com,https://api.hh.ru/employers/1512141
1565804,Escalate,,,,Гранковская Алиса,alisa@e-escalate.ru,https://api.hh.ru/employers/1565804
4554974,Техкомсервис,,,,,,https://api.hh.ru/employers/4554974
4401831,ГАУ НСО ВСЕКАНИКУЛЫ,"Новосибирск, улица Немировича-Данченко, 100",54.971672,82.891252,Наталья Сергеевна,vk@sznsk.ru,https://api.hh.ru/employers/4401831
780079,Мобилис,"Новосибирск, улица Никитина, 120",55.023088,82.976808,,,https://api.hh.ru/employers/780079
1376645,ГБУЗ НСО ГП№18,"Новосибирск, Широкая улица, 113",54.993205,82.848394,,,https://api.hh.ru/employers/1376645
1480247,Премиум,,,,Новикова Ольга Васильевна,novikovaov@sm-prm.ru,https://api.hh.ru/employers/1480247
40493,ДОБРОЦЕН,,,,Устюгова Ирина Викторовна,ustyugova@dobrotsen.ru,https://api.hh.ru/employers/40493
642001,ВЕЛВЕТЕК Системз,"Новосибирск, Героев труда, 35а",54.869015,83.078991,Сидакова Алёна Владимировна,a.sidakova@velvetech.ru,https://api.hh.ru/employers/642001
1534095,Технадзор,"Новосибирск, улица Орджоникидзе, 40",55.031634,82.935988,Калиниченко Мария,ok@tnz-nsk.ru,https://api.hh.ru/employers/1534095
1124,Brunel Russia,,,,,,https://api.hh.ru/employers/1124
37476,Минимакс,"Новосибирск, Кировский район, Северный проезд, 37/3",54.945205,82.922496,"Габеркорн Светлана, менеджер по персоналу",personal@mmnsk.ru,https://api.hh.ru/employers/37476
1547083,ВПТ-НЕФТЕМАШ,,,,Соловьева Александра Владимировна,asoloveva@vptn.ru,https://api.hh.ru/employers/1547083
3844038,Сибирские Контейнерные Линии,,,,Игорь,office@tgknsk.ru,https://api.hh.ru/employers/3844038
3063405,Энергопроект,"Новосибирск, Шорная улица, 14",55.044072,82.879439,Барило Евгения ,set@sibirenergo.com,https://api.hh.ru/employers/3063405
4568386,Crossbox Kontora,"Новосибирск, Красный проспект, 79",55.050076,82.913674,Савастьянов Сава,savastyanov101@gmail.com,https://api.hh.ru/employers/4568386
1177066,Тимбермаш Байкал,,,,,,https://api.hh.ru/employers/1177066
1018848,Инста,,,,,,https://api.hh.ru/employers/1018848
85385,Сибирский Антрацит,,,,Полина ,pgolikova@sibanthracite.ru,https://api.hh.ru/employers/85385
5923,Ренессанс Кредит,"Новосибирск, Вокзальная магистраль, 5",55.034193,82.905275,Чаава Мзиури,mchaava@rencredit.ru,https://api.hh.ru/employers/5923
1552647,САТРО-ПАЛАДИН,,,,Гречишкина Виктория Владимировна,grechishkina@satro-paladin.com,https://api.hh.ru/employers/1552647
2627141,НСК-ЭКСПЕРТ,"Новосибирск, 1-й переулок Римского-Корсакова, 5",54.980353,82.882772,,,https://api.hh.ru/employers/2627141
802904,Major Express,"Новосибирск, Инская улица, 39",55.012434,82.931191,Ковалева Ксения,kovaleva.k@post-online.ru,https://api.hh.ru/employers/802904
624968,Дистрибьюторская Менеджмент Система (АО ДМС),"Новосибирск, улица Сибиряков-Гвардейцев, 49а к3",,,Смелова Татьяна,smelova.t@dmscompany.ru,https://api.hh.ru/employers/624968
6608,Zepter International,,,,,,https://api.hh.ru/employers/6608
2361500,Кожушко Н.Е.,,,,,,https://api.hh.ru/employers/2361500
208189,РосМетИндустрия,"Новосибирск, Кировский район, Северный проезд, 3/8",54.951296,82.892088,Фахуртдинова Анастасия,fahurtdinova_av@akron-holding.ru,https://api.hh.ru/employers/208189
4527286,АФК,,,,Гааг Анастасия,asd_0309@mail.ru,https://api.hh.ru/employers/4527286
3217155,Юниверс,,,,Попов Евгений Вячеславович,vk@globalgrup.ru,https://api.hh.ru/employers/3217155
903323,Компания Элефант,"Новосибирск, Советский район, микрорайон Академгородок, улица Мусы Джалиля",54.861456,83.091092,Боинская Марина,hr@elephant-group.ru,https://api.hh.ru/employers/903323
2534792,MoneyShop,,,,,,https://api.hh.ru/employers/2534792
322207,Аттика ЛКМ,"Новосибирск, улица Мира, 54",54.962923,82.922945,,,https://api.hh.ru/employers/322207
1453697,Производственная компания «Новосибирский завод энергетических технологий» (ПО НЗЭТ),"Новосибирск, улица Кропоткина, 273",55.059044,82.936168,HR Manager,sale@nskzet.ru,https://api.hh.ru/employers/1453697
8899,Dr. Reddy’s,,,,,,https://api.hh.ru/employers/8899
14759,Банк Жилищного Финансирования,"Новосибирск, Вокзальная магистраль, 3",55.035158,82.902589,,,https://api.hh.ru/employers/14759
2198484,Гейм Маверикс,"Новосибирск, Большевистская улица, 101",55.005015,82.945555,Андрей,job@gamemavericks.com,https://api.hh.ru/employers/2198484
1419496,Very Good Transfer,"Новосибирск, проспект Димитрова, 4/1",55.02957,82.908365,Новоселова Анжелика,kadri40@mail.ru,https://api.hh.ru/employers/1419496
3597446,Центр обучения Маркетинговое образование,"Москва, Садовническая улица, 54с2",55.743325,37.638431,,,https://api.hh.ru/employers/3597446
115985,"Сибирь Профиль, ГК","Новосибирск, Сибиряков-Гвардейцев, 56",54.964029,82.901933,Михайлова Любовь,mihaylova@sibprofil.ru,https://api.hh.ru/employers/115985
633023,Альпен Фарма,,,,,,https://api.hh.ru/employers/633023
2199666,Открытие Брокер,,,,,,https://api.hh.ru/employers/2199666
4908,IKEA,,,,,,https://api.hh.ru/employers/4908
4262319,Роспар,"Новосибирск, Красный проспект, 220/5",55.067721,82.913495,Павел,rop@rospar.ru,https://api.hh.ru/employers/4262319
20924,Группа компаний АТЛ,"Новосибирск, Станционная улица, 60/9",54.99806,82.821238,,,https://api.hh.ru/employers/20924
19788,СТОУН-XXI,,,,Комкова Александра Сергеевна,komkova@stone-xxi.ru,https://api.hh.ru/employers/19788
2760708,Сибирь-Промкомплект,"Новосибирск, Сухарная улица, 35к4",55.047023,82.869756,Гусельников Дмитрий,sibir-promkomplekt@yandex.ru,https://api.hh.ru/employers/2760708
1841810,Новосибирская Пивоваренная Компания,"Новосибирск, улица Петухова, 79",54.940525,82.930617,Загривина Екатерина,,https://api.hh.ru/employers/1841810
4534067,Лбк Инвест,,,,Зайчикова Елена,y.zaychikova@inbox.ru,https://api.hh.ru/employers/4534067
4546514,Холосов,,,,,,https://api.hh.ru/employers/4546514
3840867,Babybug Concepte Store,"Новосибирск, улица Гоголя, 4",55.04155,82.91451,,,https://api.hh.ru/employers/3840867
774193,Геркулес-Сибирь,"Новосибирск, Электровозная улица, 1",54.9702814999,83.0501884957,,,https://api.hh.ru/employers/774193
4104379,НТК Строй Регион,,,,Агеева Ольга Владимировна,rab2020-ntksr@yandex.ru,https://api.hh.ru/employers/4104379
2716012,РобоФинанс,,,,Даулеткан Динара,d.dauletkan@robo.finance,https://api.hh.ru/employers/2716012
3504955,СБК,"Новосибирск, улица Сакко и Ванцетти, 77",55.020956,82.946867,,,https://api.hh.ru/employers/3504955
2106096,Светлогорский завод «Стимул»,"Новосибирск, Шорная улица, 14",55.044072,82.879439,Савкина Наталья,5176032@mail.ru,https://api.hh.ru/employers/2106096
17675,"Ренессанс Жизнь, Страхование Жизни","Новосибирск, проспект Карла Маркса, 47/2",54.990886,82.908042,Буздалин Николай Николаевич,nikolay.buzdalin@agent.renlife.ru,https://api.hh.ru/employers/17675
629070,Клиника профессора Пасман,"Новосибирск, улица Карамзина, 92",55.043211,82.943121,,,https://api.hh.ru/employers/629070
1059985,Водолей,"Новосибирск, улица Богдана Хмельницкого, 84",55.084997,82.97016,Алина Федоровна,yaaf@vodoley.info,https://api.hh.ru/employers/1059985
1700297,Жено,"Новосибирск, Коммунистическая улица, 40",55.023124,82.920636,Кудрина Анастасия,director@zheno.ru,https://api.hh.ru/employers/1700297
4486578,СТС,"Новосибирск, Большевистская улица, 270",54.985473,82.995277,Виктор,9137168809@mail.ru,https://api.hh.ru/employers/4486578
37955,Bergauf,село Марусино,55.038398,82.755086,Мытницкая Оксана Васильевна,o.mytnickaya@bergauf.ru,https://api.hh.ru/employers/37955
2768,Johnson & Johnson,,,,,,https://api.hh.ru/employers/2768
1893791,Русский холод,,,,,,https://api.hh.ru/employers/1893791
2345628,Farmmed.ru,,,,Исакова Юлия Евгеньевна,trans.logik@bk.ru,https://api.hh.ru/employers/2345628
4405985,АТА Интернешнл,"Новосибирск, Автогенная улица, 136",55.025983,82.989699,,,https://api.hh.ru/employers/4405985
4546810,Пероснальный Компьютер Нск,,,,,,https://api.hh.ru/employers/4546810
6488,Зетта Страхование,,,,Лапина Надежда,nadezhda.lapina@zettains.ru,https://api.hh.ru/employers/6488
2346963,Стройпласт 2000,,,,Клевакина Елена Аркадьевна,kadr@stroyplast2000.ru,https://api.hh.ru/employers/2346963
1518605,Сервионика,,,,Костякова Валентина,kostyakova@servionica.ru,https://api.hh.ru/employers/1518605
2660542,Клиника 1+1,"Новосибирск, Вокзальная магистраль, 5",55.034043,82.905697,,,https://api.hh.ru/employers/2660542
2776222,Сити - Сервис,,,,Галина Александровна,nsk@citser.ru,https://api.hh.ru/employers/2776222
4111823,Спецобъединение-Н,"Новосибирск, Большевистская улица, 92",54.992275,82.965202,Брянская Катерина,ebryanskaya@spets.ru,https://api.hh.ru/employers/4111823
2715467,САНТАКОМ,"Новосибирск, Кировский район, Северо-Чемской жилмассив, улица Брюллова, 6А",54.956306,82.942896,,,https://api.hh.ru/employers/2715467
4530371,Дом Качества,,,,Галеева Лилия,sales@dk-de.ru,https://api.hh.ru/employers/4530371
916364,"585, Золотой",,,,,,https://api.hh.ru/employers/916364
2562360,ТопФрейм,,,,Дерябина Юлия,personal@topframe.ru,https://api.hh.ru/employers/2562360
597731,Джемини,"Новосибирск, улица Красина, 54",55.042416,82.962911,Ольга,gemnsk@yandex.ru,https://api.hh.ru/employers/597731
3385401,Магазин белорусских продуктов (ИП Шитькова А.И.),"Новосибирск, Красный проспект, 188",55.059704,82.91415,Никишина Анастасия,nikichina5@mail.ru,https://api.hh.ru/employers/3385401
13969,ОРИМИ ТРЭЙД,,,,,,https://api.hh.ru/employers/13969
3227386,ВЕРТИКАЛЬ,"Новосибирск, улица Кирова, 317",55.004282,82.97493,Багликов Алексей,754463@mail.ru,https://api.hh.ru/employers/3227386
9571,"Люди Дела, Кадровое агентство",,,,,,https://api.hh.ru/employers/9571
1279284,Кантри,"Новосибирск, проспект Карла Маркса, 30",54.99196,82.911932,Бунецкая Маргарита,kantre@ngs.ru,https://api.hh.ru/employers/1279284
813458,Группа компаний АГРОЭКО,,,,,,https://api.hh.ru/employers/813458
1855118,Студия мебели Meleta,,,,,,https://api.hh.ru/employers/1855118
2910007,Мясной двор,,,,Отдел кадров,mdvorm@mail.ru,https://api.hh.ru/employers/2910007
4541253,Айсберг,,,,Адрей Алексеевич,asbergskype@yandex.ru,https://api.hh.ru/employers/4541253
35059,Медицинский центр XXI век,,,,Абрамина Ольга Юрьевна,abraminaoy@mc21.ru,https://api.hh.ru/employers/35059
4309,Ингосстрах,,,,Надежда Терехова,info@nsk.ingos.ru,https://api.hh.ru/employers/4309
4294657,Консьерж-Центр,"Новосибирск, Коммунистическая улица, 13",55.022995,82.913728,Куксин Роман,kuksina808@mail.ru,https://api.hh.ru/employers/4294657
3524865,Шония Онери Владимирович,"Новосибирск, улица Гоголя, 13",55.043721,82.922334,,,https://api.hh.ru/employers/3524865
3198079,Железнодорожный ОВО по городу Новосибирску,"Новосибирск, Железнодорожный район, Железнодорожная улица, 6/2",55.042932,82.896759,Ольга Александровна,gd-uvo@ngs.ru,https://api.hh.ru/employers/3198079
4536820,Фортуна,,,,Азаренко Лилия,l.azarenko@textil.nsk.su,https://api.hh.ru/employers/4536820
113649,UserGate,"Новосибирск, улица Николаева, 11",,,,,https://api.hh.ru/employers/113649
76049,Д2 Страхование,"Новосибирск, Советская улица, 33",55.029239,82.916225,Агапова Алена Васильевна,agapova@d2insur.ru,https://api.hh.ru/employers/76049
714994,Magora Systems,"Новосибирск, улица Семьи Шамшиных, 64",55.041839,82.930069,,,https://api.hh.ru/employers/714994
899745,ДОМАКС,"Новосибирск, улица Пермитина, 24",54.991666,82.893696,,,https://api.hh.ru/employers/899745
4470344,Smenik Agency,,,,,,https://api.hh.ru/employers/4470344
1520295,Группа компаний АртФолио,"Новосибирск, улица Крылова, 29",55.041792,82.92847,Порубаева Анастасия,a.porubaeva@artfolio.bz,https://api.hh.ru/employers/1520295
2097,Твое,,,,Ивличева Юлия Валерьевна,y.ivlicheva@tvoe.ru,https://api.hh.ru/employers/2097
7012,ГПМ Радио,"Новосибирск, Депутатская, 48",55.029234,82.927356,Посаженникова Юлия,posajennikova@krs.gpmradio.ru,https://api.hh.ru/employers/7012
3761574,Пловбери Казань,"Новосибирск, улица Ватутина, 107",54.96408,82.936069,,,https://api.hh.ru/employers/3761574
1227042,Новосибирский авторемонтный завод,"Новосибирск, улица Аникина, 29",54.960881,82.942528,Козликина Виктория Александровна,ok-narz@ngs.ru,https://api.hh.ru/employers/1227042
1731,THOMAS MUNZ,"Новосибирск, улица Фрунзе, 238",55.03897,82.960728,Рыжова Варвара,ryzhova.v@zenden.ru,https://api.hh.ru/employers/1731
24102,ЭГИС-РУС,"Москва, улица Ивана Франко, 8",55.727891,37.449641,,,https://api.hh.ru/employers/24102
1391164,Марконфлекс,,,,Уряшев Эльдар,eldar@m-fl.ru,https://api.hh.ru/employers/1391164
722927,АвтоНасс,,,,Шестопалова Алена Вадимовна,info@avtoscan.com,https://api.hh.ru/employers/722927
2439670,HERO[IN]MARKETING,,,,,,https://api.hh.ru/employers/2439670
1006122,"РосЭнергоРесурс, ООО ПО","Новосибирск, Станционная улица, 15/2",54.996862,82.858814,Полянская Мария,1323@rernsk.ru,https://api.hh.ru/employers/1006122
1631501,АРМЕЙКА.NET,"Новосибирск, улица Фрунзе, 86",55.037381,82.933509,Коньяков Сергей,konyakov-s@armeyka.net,https://api.hh.ru/employers/1631501
2731532,Ерунин А.В.,"Новосибирск, улица Толстого, 75",55.019367,82.946463,Карасикова Регина Аркадьевна,regina-80_80@mail.ru,https://api.hh.ru/employers/2731532
2712689,ТПК Полимер-Сервис,"Новосибирск, Большая улица, 171/1",55.011913,82.838458,,,https://api.hh.ru/employers/2712689
1612960,Мебель Поволжья,"Новосибирск, Кировский район, Северный проезд, 33к1",54.945619,82.920052,Типцов Антон,tiptsov_anton@mail.ru,https://api.hh.ru/employers/1612960
1700874,УТТиСТ-Бурсервис,,,,Гладкова Юлия,y.gladkova@krs.uttist.ru,https://api.hh.ru/employers/1700874
883115,Lampyris,"Новосибирск, Советский район, микрорайон Академгородок, улица Арбузова, 2/12",54.870166,83.110244,Александра,271@lampyris.ru,https://api.hh.ru/employers/883115
4352,Почта России,,,,,,https://api.hh.ru/employers/4352
2176439,ТМК Континенталь,"Новосибирск, Ипподромская улица, 44",55.058317,82.938674,Альбина,hr21_servicegroup@mail.ru,https://api.hh.ru/employers/2176439
1518660,Master-Staff Group,,,,Альпатцева Майя,malpatceva@a-alliance.ru,https://api.hh.ru/employers/1518660
4561705,ГАУ НСО Спортивная школа по шахматам,,,,Светлана Козлова,novosibirsk.chess@gmail.com,https://api.hh.ru/employers/4561705
36760,"Деловая Русь, Группа компаний",,,,,,https://api.hh.ru/employers/36760
214420,Life Job,"Новосибирск, Кубовая улица, 60",55.130467,82.895645,Виктория ,personal6@lifej.ru,https://api.hh.ru/employers/214420
1488079,Персонал-Сервис,,,,Федорченко Ирина,i.fedorchenko@perserv.ru,https://api.hh.ru/employers/1488079
4031650,ПКФ Фортуна,"Новосибирск, улица Демьяна Бедного, 55",55.048616,82.934066,Сигитов Александр,t.potolkov@yandex.ru,https://api.hh.ru/employers/4031650
1675013,Плазмохимические технологии,"Новосибирск, Советский район, микрорайон Академгородок, Инженерная улица, 24",54.854128,83.110495,Ольга Шумбасова,shumbasova.oe@ocsial.com,https://api.hh.ru/employers/1675013
399,DPD в России,"Новосибирск, Серебренниковская улица, 19/1",55.021927,82.926233,Галютина Анна Анатольевна,anna.galyutina@dpd.ru,https://api.hh.ru/employers/399
608106,"МегаКом, ГК","Новосибирск, улица Дуси Ковальчук, 414",55.065385,82.931048,,,https://api.hh.ru/employers/608106
2166,БКК «Коломенский»,,,,,,https://api.hh.ru/employers/2166
1060548,Викон,,,,Катерина,vikon04@mail.ru,https://api.hh.ru/employers/1060548
4590,"STS Logistics, Холдинг","Новосибирск, улица Петухова, 35/2",54.947362,82.85223,Светлана,svasileva@stslog.com,https://api.hh.ru/employers/4590
2168376,Ладья,,,,Новгородцев Олег Николаевич,non@ladya.pro,https://api.hh.ru/employers/2168376
2792923,Старица,"Новосибирск, улица Немировича-Данченко, 49",54.9719,82.874544,Давыдова Анна Викторовна,79130103992@yandex.ru,https://api.hh.ru/employers/2792923
714248,Xored,"Новосибирск, Советский район, микрорайон Академгородок, улица Мусы Джалиля, 21",54.861984,83.093571,Арсентьева Татьяна,job@xored.com,https://api.hh.ru/employers/714248
9281,JetBrains,"Новосибирск, Советский район, микрорайон Академгородок, улица Демакова, 30",54.860124,83.1154,,,https://api.hh.ru/employers/9281
3315832,Integral,"Новосибирск, Красный проспект, 17/1",55.026205,82.920969,Бирюкова Злата,zbiryukova@sfxdx.ru,https://api.hh.ru/employers/3315832
53866,True Engineering,"Новосибирск, улица Кутателадзе, 4г",54.857958,83.105671,,,https://api.hh.ru/employers/53866
